{"type":"FeatureCollection","name":"ZBE A Coruña","features":[{"type":"Feature","properties":{"name":"A Coruña","calidad":"reviewed_from_uploaded_boundary_points"},"geometry":{"type":"Polygon","coordinates":[[[-8.399827,43.36961],[-8.399826,43.36961],[-8.399774,43.369633],[-8.39967,43.36968],[-8.399567,43.369755],[-8.399566865671641,43.369755223880595],[-8.399549,43.369728],[-8.399467,43.369804],[-8.39943,43.36982],[-8.399329,43.36986],[-8.399299,43.369877],[-8.399209,43.369915],[-8.399191,43.369923],[-8.399169,43.369896],[-8.39912,43.369915],[-8.399106,43.36992],[-8.398999,43.36994],[-8.398886,43.369965],[-8.398718,43.37],[-8.398684,43.370007],[-8.398679,43.370007],[-8.398667,43.370007],[-8.398638,43.370014],[-8.398622,43.370018],[-8.398592,43.370026],[-8.39859,43.370026],[-8.398578,43.370026],[-8.398577,43.370026],[-8.398317,43.370083],[-8.398316,43.37008],[-8.398311,43.370083],[-8.398309,43.370083],[-8.398278,43.37009],[-8.398262,43.370094],[-8.398232,43.3701],[-8.398216,43.370102],[-8.3981285,43.37012],[-8.398121,43.37012],[-8.398102,43.370125],[-8.398092,43.37013],[-8.398008,43.370144],[-8.398001,43.370148],[-8.397921,43.370163],[-8.397843,43.37018],[-8.397749,43.3702],[-8.3976755,43.370216],[-8.397605,43.370228],[-8.397516,43.370247],[-8.397404,43.37027],[-8.397312,43.370274],[-8.397221,43.370277],[-8.397101,43.370266],[-8.396959,43.37026],[-8.396915,43.370255],[-8.396906,43.370255],[-8.396825,43.370247],[-8.396692,43.370235],[-8.396538,43.370224],[-8.396535,43.370224],[-8.396383,43.370213],[-8.396231,43.3702],[-8.396226,43.3702],[-8.396189,43.370197],[-8.396118,43.370193],[-8.39608,43.37019],[-8.396079,43.37019],[-8.395923,43.37018],[-8.395771,43.370167],[-8.395619,43.370155],[-8.3956175,43.370155],[-8.39561,43.370155],[-8.395515,43.370148],[-8.395505,43.370148],[-8.395495,43.370148],[-8.395485,43.370144],[-8.395483,43.370144],[-8.395478,43.370144],[-8.395476,43.370144],[-8.395474,43.370144],[-8.395472,43.370148],[-8.395467,43.370148],[-8.395466,43.37015],[-8.395463,43.37015],[-8.39546,43.370155],[-8.395458,43.37016],[-8.395457,43.370167],[-8.395456,43.370174],[-8.395455,43.370182],[-8.395438,43.370296],[-8.395437,43.370304],[-8.3954115,43.370304],[-8.3953905,43.370304],[-8.39535,43.3703],[-8.395345,43.3703],[-8.395317,43.370296],[-8.395315,43.370296],[-8.395318,43.370277],[-8.395318,43.370274],[-8.395323,43.370243],[-8.395327,43.370216],[-8.395328,43.370213],[-8.395338,43.370144],[-8.395339,43.37014],[-8.395339,43.370136],[-8.395341,43.370125],[-8.395343,43.370113],[-8.395343,43.37011],[-8.395345,43.370102],[-8.395346,43.370026],[-8.395329,43.37002],[-8.395224,43.36998],[-8.395195,43.36997],[-8.395194,43.36997],[-8.39514,43.369946],[-8.3950615,43.36991],[-8.395051454336139,43.36990661110134],[-8.3949795,43.369953],[-8.394898,43.37001],[-8.394828,43.370064],[-8.394758,43.37019],[-8.394708783653142,43.3701634231727],[-8.394806,43.37035],[-8.394803,43.370354],[-8.394801,43.370354],[-8.394817,43.37037],[-8.394822,43.370365],[-8.394837,43.370377],[-8.394886,43.370407],[-8.394897363702396,43.3704159962644],[-8.394751,43.370434],[-8.394715,43.37047],[-8.39466,43.37052],[-8.394634,43.37055],[-8.394631,43.370552],[-8.394611,43.37057],[-8.394609,43.37057],[-8.394591,43.37059],[-8.394565,43.370617],[-8.394473,43.370705],[-8.394414,43.37076],[-8.394412,43.370766],[-8.394404,43.370773],[-8.394367,43.370808],[-8.3943615,43.370815],[-8.394358,43.37083],[-8.394339,43.370872],[-8.394336,43.370872],[-8.394344052631578,43.37087557894737],[-8.394302,43.370872],[-8.394282,43.37089],[-8.3942585,43.370914],[-8.394233,43.370937],[-8.394209,43.37096],[-8.394192,43.370975],[-8.394186,43.370983],[-8.394163,43.371006],[-8.394152,43.3711],[-8.394146,43.37115],[-8.394145,43.37116],[-8.39414,43.3712],[-8.394163,43.37122],[-8.394136,43.371246],[-8.394089,43.371304],[-8.394017,43.371258],[-8.39392,43.37125],[-8.39392,43.371246],[-8.393919,43.371254],[-8.393918,43.371258],[-8.393916,43.37126],[-8.393913,43.37127],[-8.393912,43.37127],[-8.393909,43.371273],[-8.393907,43.371277],[-8.393904,43.37128],[-8.393921,43.371235],[-8.393921,43.37123],[-8.39392,43.371227],[-8.393919,43.371227],[-8.393916,43.37122],[-8.393915,43.371216],[-8.393842,43.371353],[-8.393839,43.371357],[-8.393835,43.37136],[-8.393802,43.3714],[-8.393774,43.37143],[-8.393771,43.371433],[-8.3937645,43.37144],[-8.393761,43.371445],[-8.393754,43.371452],[-8.393751,43.371456],[-8.393744,43.371464],[-8.393743,43.371464],[-8.393742,43.371468],[-8.393738,43.37147],[-8.393736,43.37147],[-8.393735,43.371475],[-8.393733,43.371475],[-8.393704,43.37151],[-8.393629,43.371593],[-8.393609,43.371613],[-8.393586,43.37163],[-8.393559,43.371647],[-8.393524,43.371666],[-8.393502,43.371677],[-8.39348,43.371685],[-8.393458,43.37169],[-8.39341,43.371696],[-8.393336,43.3717],[-8.39326,43.371704],[-8.393224,43.3717],[-8.393187,43.371696],[-8.393134,43.37169],[-8.393074,43.37168],[-8.392979,43.371662],[-8.392836,43.37163],[-8.392812,43.371628],[-8.392821,43.371597],[-8.392822,43.371597],[-8.392828,43.371582],[-8.392443,43.371506],[-8.392433,43.371502],[-8.392419,43.371536],[-8.392397,43.371532],[-8.392387,43.37153],[-8.392385,43.37154],[-8.3922615,43.371513],[-8.392138,43.371487],[-8.392108,43.371483],[-8.391917,43.371445],[-8.39191,43.37144],[-8.391908,43.37144],[-8.391883,43.371418],[-8.391767,43.371395],[-8.391724,43.371387],[-8.391703,43.371384],[-8.391681,43.37138],[-8.39166,43.371372],[-8.391639,43.37137],[-8.391618,43.371365],[-8.391597,43.371357],[-8.391577,43.371353],[-8.391556,43.371346],[-8.391536,43.37134],[-8.3915,43.37133],[-8.391465,43.37132],[-8.391431,43.371307],[-8.391407,43.3713],[-8.391336,43.371273],[-8.391331,43.37127],[-8.391328,43.37127],[-8.391321,43.37127],[-8.391318,43.37127],[-8.391312,43.371265],[-8.391305,43.37127],[-8.391292,43.37127],[-8.391288,43.37127],[-8.391281,43.37127],[-8.391274,43.37127],[-8.391268,43.371265],[-8.391259,43.371265],[-8.391255,43.371265],[-8.391242,43.371258],[-8.391229,43.37125],[-8.391216,43.37124],[-8.391196,43.371227],[-8.391174,43.371216],[-8.391146,43.371193],[-8.391127,43.37118],[-8.391098,43.371162],[-8.3910675,43.37114],[-8.391044,43.37112],[-8.391032,43.371113],[-8.391009,43.371094],[-8.390998,43.371082],[-8.390987,43.371075],[-8.390965,43.371056],[-8.390955,43.371044],[-8.390944,43.371033],[-8.390926,43.371014],[-8.390909,43.370995],[-8.390893,43.370975],[-8.390886,43.370964],[-8.390879,43.370956],[-8.390872,43.370945],[-8.390865,43.370937],[-8.390853,43.37092],[-8.390847,43.370907],[-8.390836,43.370888],[-8.390824,43.37087],[-8.390818,43.370853],[-8.390803,43.370827],[-8.39077,43.37076],[-8.390732,43.370686],[-8.390695,43.370613],[-8.390655,43.370533],[-8.390605,43.370434],[-8.390592,43.370407],[-8.390547,43.370327],[-8.390543,43.37032],[-8.390531,43.370296],[-8.390518,43.370274],[-8.390507,43.37025],[-8.390486,43.3702],[-8.390476,43.37018],[-8.390467,43.37015],[-8.390449,43.370106],[-8.390442,43.37008],[-8.39043,43.370033],[-8.390426,43.370007],[-8.390421,43.369984],[-8.390414,43.369934],[-8.390412,43.36991],[-8.39041,43.36989],[-8.390409,43.36986],[-8.3904085,43.36984],[-8.390415,43.369774],[-8.390418,43.369743],[-8.390419,43.369728],[-8.390423,43.36968],[-8.3904295,43.369614],[-8.390437,43.36954],[-8.390452,43.369423],[-8.39046,43.36936],[-8.390465,43.369316],[-8.390472,43.369267],[-8.390476,43.36924],[-8.390481,43.369213],[-8.390497,43.36911],[-8.39051,43.369038],[-8.39051,43.369034],[-8.3905115,43.369015],[-8.3905115,43.369007],[-8.390509,43.369],[-8.390503,43.36899],[-8.390492,43.36898],[-8.390488,43.368973],[-8.390487,43.368973],[-8.390479,43.368965],[-8.390478,43.368965],[-8.390475,43.36896],[-8.390465,43.36895],[-8.390454,43.36894],[-8.390441,43.368927],[-8.390427,43.368916],[-8.390401,43.368893],[-8.390359,43.368866],[-8.390355,43.368862],[-8.39034,43.368847],[-8.390332,43.36884],[-8.390326,43.36883],[-8.390323,43.368828],[-8.39032,43.368824],[-8.390314,43.368816],[-8.390308,43.36881],[-8.390304,43.3688],[-8.390295,43.368782],[-8.390278,43.36874],[-8.390261,43.368687],[-8.390259,43.368683],[-8.390257,43.36868],[-8.390254,43.368668],[-8.390253,43.36866],[-8.390252,43.36865],[-8.390251,43.36864],[-8.390251,43.368637],[-8.390252,43.368626],[-8.390253,43.36862],[-8.390254,43.368618],[-8.390256,43.36861],[-8.390258,43.36861],[-8.39026,43.368607],[-8.390261,43.368607],[-8.390264,43.368603],[-8.39027,43.368595],[-8.390279,43.368587],[-8.390302,43.368565],[-8.390309,43.368557],[-8.390326,43.36854],[-8.390338,43.36853],[-8.390343,43.368526],[-8.390351,43.36852],[-8.390359,43.36851],[-8.390362,43.36851],[-8.390368,43.368504],[-8.390379,43.368496],[-8.390385,43.368492],[-8.390396,43.368484],[-8.390403,43.36848],[-8.390415,43.368473],[-8.390472,43.36844],[-8.390479,43.368435],[-8.390485,43.368435],[-8.3904915,43.36843],[-8.390497,43.368427],[-8.390505,43.368427],[-8.3905115,43.368423],[-8.390526,43.36842],[-8.39054,43.368416],[-8.390547,43.368416],[-8.3905525,43.368412],[-8.390565,43.368412],[-8.390577,43.368412],[-8.39058,43.368412],[-8.390592,43.36841],[-8.3906145,43.36841],[-8.390637,43.36841],[-8.390649,43.36841],[-8.39066,43.36841],[-8.390686,43.368412],[-8.390693,43.368412],[-8.390698,43.368412],[-8.3906975,43.368427],[-8.3907,43.368427],[-8.390704,43.368427],[-8.390712,43.368427],[-8.390725,43.36843],[-8.390731,43.368435],[-8.390739,43.36844],[-8.390751,43.368443],[-8.390791,43.368458],[-8.390885,43.368492],[-8.390888,43.36849],[-8.390948,43.368515],[-8.390955539376158,43.368504779956766],[-8.390642,43.368355],[-8.39062,43.368332],[-8.390585,43.368294],[-8.390603,43.368282],[-8.390655,43.368248],[-8.390655,43.368244],[-8.390654,43.368244],[-8.390655,43.368237],[-8.390655,43.36823],[-8.390655,43.36822],[-8.390654,43.368214],[-8.390653,43.368206],[-8.390652,43.3682],[-8.39065,43.36819],[-8.390647,43.368187],[-8.390644,43.36818],[-8.390641,43.36817],[-8.390637,43.368164],[-8.390637,43.368156],[-8.390636,43.368156],[-8.3906355,43.368156],[-8.390635,43.368156],[-8.390675,43.368134],[-8.390675,43.36813],[-8.390709,43.36811],[-8.39332745991129,43.36882708017742],[-8.393329,43.368824],[-8.393342,43.36882],[-8.393345,43.36882],[-8.393349,43.36882],[-8.393355,43.36882],[-8.393359,43.36882],[-8.393362,43.36882],[-8.393366,43.36882],[-8.393365,43.368816],[-8.393363,43.36881],[-8.393369,43.36881],[-8.393373,43.36881],[-8.393374,43.36881],[-8.393376,43.36881],[-8.393394,43.368805],[-8.393556,43.36877],[-8.393668,43.368732],[-8.393667,43.36872],[-8.393664,43.36872],[-8.393665,43.368702],[-8.393662,43.368702],[-8.393663,43.368687],[-8.393804,43.368675],[-8.3938055,43.368675],[-8.393807,43.36867],[-8.39381,43.368668],[-8.393811,43.368664],[-8.3938675,43.36865],[-8.393962,43.368626],[-8.394058,43.36861],[-8.394156,43.368607],[-8.394254,43.368607],[-8.394161,43.368736],[-8.393924,43.368828],[-8.393913,43.36883],[-8.393853,43.368855],[-8.393848,43.36886],[-8.39376,43.368893],[-8.393680690697499,43.368923814442375],[-8.394856680658345,43.36924586599876],[-8.394814,43.369175],[-8.394754,43.369087],[-8.394726,43.369045],[-8.39471,43.369026],[-8.394654,43.36895],[-8.394595,43.368896],[-8.394533,43.368862],[-8.394468,43.368828],[-8.394355,43.368763],[-8.39432,43.368744],[-8.39435,43.36862],[-8.394442,43.368645],[-8.394476,43.368656],[-8.394532,43.368633],[-8.394547,43.36863],[-8.394576,43.368656],[-8.394575,43.36866],[-8.394586,43.36867],[-8.394596981818182,43.36866385018182],[-8.394609,43.36871],[-8.39461,43.36871],[-8.394611,43.368713],[-8.394634,43.368725],[-8.394672,43.368748],[-8.394709,43.36877],[-8.394742,43.368797],[-8.394773,43.368828],[-8.394796,43.36885],[-8.394824,43.36888],[-8.394843,43.368908],[-8.394855,43.368923],[-8.394872,43.36895],[-8.394877,43.36896],[-8.394948,43.36908],[-8.394987,43.369144],[-8.395056,43.369263],[-8.395065,43.369278],[-8.395082342484832,43.369307664776684],[-8.395865,43.369522],[-8.395889,43.369564],[-8.395896,43.369568],[-8.395973,43.36957],[-8.395973,43.369576],[-8.396099,43.36958],[-8.396226,43.369587],[-8.396291,43.36959],[-8.396419,43.369595],[-8.396482,43.3696],[-8.396607,43.369606],[-8.396673,43.369606],[-8.396799,43.369614],[-8.396925,43.36962],[-8.397054,43.369625],[-8.397119,43.36963],[-8.397244,43.369633],[-8.397309,43.369637],[-8.397435,43.369644],[-8.397562,43.369648],[-8.397753,43.36966],[-8.397817,43.369663],[-8.3979435,43.369667],[-8.398007,43.36967],[-8.398134,43.36968],[-8.398135,43.369675],[-8.398262,43.369682],[-8.398272,43.36957],[-8.398286,43.369404],[-8.398294,43.36931],[-8.398303,43.369213],[-8.398315,43.369076],[-8.398328,43.36894],[-8.398333,43.36889],[-8.398343,43.368774],[-8.398358,43.368774],[-8.398353,43.36867],[-8.398368,43.36867],[-8.398519075097555,43.36864744127502],[-8.398577,43.368763],[-8.39858,43.368763],[-8.398574,43.368816],[-8.398681,43.368862],[-8.3987465,43.36889],[-8.398813,43.368916],[-8.398879,43.368942],[-8.398945,43.368965],[-8.398984,43.36898],[-8.398985,43.368984],[-8.39902,43.368965],[-8.399047,43.36895],[-8.399073,43.368935],[-8.399097,43.368923],[-8.399112,43.368916],[-8.399125,43.368908],[-8.399147,43.36893],[-8.399715,43.3695],[-8.399827,43.36961]],[[-8.391176358435292,43.368599319892006],[-8.391176,43.3686],[-8.391177,43.368603],[-8.391182,43.368607],[-8.391186,43.36861],[-8.39119,43.368614],[-8.391192,43.368618],[-8.391193,43.36862],[-8.391193,43.368626],[-8.391194,43.36863],[-8.391193,43.368633],[-8.391193,43.368637],[-8.3911915,43.36864],[-8.39119,43.36865],[-8.391188,43.36865],[-8.391185,43.368652],[-8.391179,43.36866],[-8.391176,43.368664],[-8.391172,43.368664],[-8.39117,43.368668],[-8.391167,43.368668],[-8.391163,43.36867],[-8.391159,43.36867],[-8.391152,43.368675],[-8.3911495,43.368675],[-8.391145,43.36868],[-8.391144,43.36868],[-8.391197,43.36874],[-8.391222,43.368767],[-8.391298,43.368847],[-8.391307,43.36886],[-8.391376,43.368935],[-8.391383,43.368942],[-8.391392,43.36894],[-8.3914585,43.368908],[-8.391459,43.368908],[-8.391478,43.368935],[-8.391483,43.368942],[-8.391514,43.368927],[-8.391517,43.368927],[-8.391574,43.369003],[-8.391579,43.369007],[-8.391584,43.369015],[-8.391704,43.36908],[-8.391712,43.369083],[-8.391715,43.369083],[-8.391824,43.369144],[-8.391832,43.369144],[-8.391856,43.369144],[-8.391856,43.36915],[-8.391926,43.36915],[-8.391979,43.36902],[-8.39191,43.368996],[-8.391908,43.368996],[-8.391904,43.368996],[-8.391900812807881,43.36899121921182],[-8.392069,43.369045],[-8.392075,43.369045],[-8.392081,43.369045],[-8.392185760869573,43.369045],[-8.391735,43.36888],[-8.391664,43.36883],[-8.391626,43.36881],[-8.391556,43.36876],[-8.391493,43.368717],[-8.391437,43.36868],[-8.391429,43.368687],[-8.391426,43.368683],[-8.391422,43.368694],[-8.39142,43.368694],[-8.391419,43.3687],[-8.391378,43.368652],[-8.391377,43.368652],[-8.391385,43.368645],[-8.391367,43.368656],[-8.391369,43.36866],[-8.391364,43.36866],[-8.391176358435292,43.368599319892006]],[[-8.392274223702477,43.369077381620535],[-8.392282833333335,43.369096982269504],[-8.392302859844168,43.369087863815636],[-8.392274223702477,43.369077381620535]]]}}]}