{"type":"FeatureCollection","name":"ZBE albacete","features":[{"type":"Feature","properties":{"name":"ZBE Albacete · Centro y Huerta de Marzo","fuente":"Trazado a partir de imagen · calidad: alta - Google Maps con polígono detallado"},"geometry":{"type":"Polygon","coordinates":[[[-1.8643,38.999],[-1.8625,38.9995],[-1.8595,39.0],[-1.8568,39.0003],[-1.854,39.0],[-1.8523,38.999],[-1.8517,38.9968],[-1.8512,38.9943],[-1.8513,38.992],[-1.8525,38.99],[-1.855,38.9885],[-1.858,38.9878],[-1.8612,38.9883],[-1.8635,38.9895],[-1.865,38.992],[-1.8655,38.9945],[-1.865,38.997],[-1.8643,38.999]]]}}]}