{"type":"FeatureCollection","name":"ZBE Alicante","features":[{"type":"Feature","properties":{"name":"Alicante","calidad":"approx_from_sparse_boundary_points"},"geometry":{"type":"Polygon","coordinates":[[[-0.484110715507924,38.34667799323699],[-0.4833058,38.348076],[-0.4835856,38.348625],[-0.4835848,38.348648],[-0.48150623,38.34845],[-0.48027784,38.347122],[-0.47896776,38.347275],[-0.47772726,38.347176],[-0.4772025,38.34736],[-0.47657105,38.347107],[-0.4773048,38.346523],[-0.47756684,38.34635],[-0.4780304,38.346344],[-0.47939178,38.345947],[-0.48084247,38.345257],[-0.48209175,38.344574],[-0.48311055,38.344208],[-0.484110715507924,38.34667799323699]]]}}]}