{"type":"FeatureCollection","name":"ZBE almeria","features":[{"type":"Feature","properties":{"name":"ZBE Almería · Pescadería · La Chanca","fuente":"Trazado a partir de imagen · calidad: alta - mapa RACE con calles"},"geometry":{"type":"Polygon","coordinates":[[[-2.4734,36.8388],[-2.4738,36.8401],[-2.4736,36.8418],[-2.473,36.8438],[-2.4715,36.8451],[-2.4695,36.8456],[-2.4675,36.8453],[-2.4659,36.8438],[-2.4644,36.8418],[-2.464,36.8403],[-2.464,36.839],[-2.466,36.8388],[-2.469,36.8388],[-2.4715,36.8388],[-2.4734,36.8388]]]}}]}