{"type":"FeatureCollection","name":"ZBE Zona de Bajas Emisiones de Ávila","features":[{"type":"Feature","properties":{"name":"Zona de Bajas Emisiones de Ávila","fuente":"OpenStreetMap · way/1472673347"},"geometry":{"type":"Polygon","coordinates":[[[-4.7046937,40.6544233],[-4.7046431,40.6544167],[-4.7046295,40.6544504],[-4.7045311,40.6549454],[-4.7045007,40.6550057],[-4.7044761,40.6550331],[-4.7043891,40.6550852],[-4.7042833,40.6551175],[-4.7042429,40.655123],[-4.7039088,40.655068],[-4.7029991,40.6549389],[-4.7025301,40.6548358],[-4.7022254,40.6547732],[-4.7018128,40.6546712],[-4.7011784,40.654496],[-4.7010399,40.6544494],[-4.7009483,40.654412],[-4.7008526,40.6543593],[-4.7007682,40.6543272],[-4.7005028,40.6542453],[-4.7002984,40.6541735],[-4.69972,40.653946],[-4.6995206,40.6538742],[-4.6991399,40.6537446],[-4.6991035,40.6537588],[-4.698989,40.6537815],[-4.6987825,40.6537975],[-4.6979169,40.6538486],[-4.6978288,40.6538501],[-4.6977022,40.6538405],[-4.6973647,40.6537897],[-4.6972562,40.6537904],[-4.6971987,40.653799],[-4.6971704,40.6538164],[-4.6971399,40.6538577],[-4.6971033,40.6539753],[-4.6970409,40.6542074],[-4.6970121,40.654281],[-4.6969979,40.6543019],[-4.6969688,40.654324],[-4.6969414,40.6543348],[-4.6969113,40.6543399],[-4.6968674,40.6543365],[-4.6963085,40.6542092],[-4.6961353,40.6541563],[-4.6956025,40.6540643],[-4.6953906,40.6540222],[-4.6952393,40.6540101],[-4.6947934,40.6540283],[-4.6945705,40.6540444],[-4.6945769,40.6540825],[-4.6945663,40.6541127],[-4.6945427,40.6541383],[-4.6945091,40.6541562],[-4.6940755,40.6542278],[-4.6941179,40.6542984],[-4.6947673,40.6547867],[-4.6954101,40.655205],[-4.6954848,40.6552629],[-4.6955052,40.6552898],[-4.6956297,40.6555484],[-4.6956368,40.6555793],[-4.6956297,40.6556101],[-4.6955035,40.6558471],[-4.6954869,40.6558669],[-4.6954641,40.6558828],[-4.6954269,40.655896],[-4.6953758,40.6558977],[-4.6953069,40.655885],[-4.6950518,40.6558265],[-4.6949873,40.6559152],[-4.695297,40.6560291],[-4.6956824,40.6560745],[-4.6957252,40.6560838],[-4.6957526,40.6560946],[-4.6957754,40.6561105],[-4.695799,40.6561451],[-4.6958026,40.6561763],[-4.6957872,40.6562134],[-4.6955479,40.6564595],[-4.695518,40.656476],[-4.6951991,40.6565998],[-4.6954345,40.6566448],[-4.6957863,40.6568082],[-4.6960912,40.6569582],[-4.6963734,40.6570582],[-4.6964071,40.6570761],[-4.6964346,40.657109],[-4.6964413,40.6571477],[-4.6963556,40.6573534],[-4.6963714,40.6574066],[-4.6963724,40.6574365],[-4.6966044,40.6574643],[-4.6967182,40.6574628],[-4.6968493,40.6574876],[-4.6969057,40.6574869],[-4.6969779,40.6575097],[-4.6970103,40.6575271],[-4.6970546,40.6575749],[-4.6970686,40.6576043],[-4.6970694,40.6576747],[-4.697049,40.6577118],[-4.697066,40.6577866],[-4.6971239,40.658114],[-4.6971631,40.6581777],[-4.6972058,40.6582061],[-4.6973395,40.6582427],[-4.6983901,40.658355],[-4.6992295,40.6585035],[-4.6995536,40.6585337],[-4.6999949,40.6585434],[-4.7002093,40.6585699],[-4.701807,40.6588602],[-4.7026933,40.6590305],[-4.702952,40.6591231],[-4.7037029,40.6594372],[-4.7038321,40.6594716],[-4.7038546,40.6594844],[-4.703947,40.6595604],[-4.7040195,40.6595851],[-4.7041204,40.6596087],[-4.7041928,40.6596187],[-4.7043953,40.6596327],[-4.7048489,40.6595933],[-4.7051607,40.6595449],[-4.7059717,40.6593824],[-4.706189,40.659326],[-4.7063133,40.6592765],[-4.7064456,40.6592082],[-4.7065752,40.6591159],[-4.706683,40.6590107],[-4.7067293,40.6589498],[-4.7067844,40.6588519],[-4.707307,40.657761],[-4.7073144,40.6576866],[-4.7073551,40.6575125],[-4.707349,40.6574825],[-4.7073578,40.6574314],[-4.7073875,40.6573881],[-4.7074085,40.6573034],[-4.7074796,40.6571968],[-4.7077015,40.6565692],[-4.7077291,40.6564613],[-4.7077321,40.6563612],[-4.7077193,40.6562889],[-4.7076646,40.6561545],[-4.7075848,40.6560186],[-4.7074999,40.6558907],[-4.7074241,40.6558043],[-4.7072864,40.6556629],[-4.7069855,40.6553885],[-4.7066877,40.6552728],[-4.7066228,40.6552404],[-4.7065549,40.6551987],[-4.7046937,40.6544233]]]}}]}