{"type":"FeatureCollection","name":"ZBE Bilbao","features":[{"type":"Feature","properties":{"name":"Bilbao","calidad":"reviewed_from_uploaded_boundary_points"},"geometry":{"type":"Polygon","coordinates":[[[-2.9468257,43.260582],[-2.946530606573075,43.26135609210183],[-2.9465995,43.261097],[-2.9463892,43.26161],[-2.946329,43.261745],[-2.9462745,43.26188],[-2.9462025,43.262062],[-2.9460979,43.262146],[-2.9460683,43.26219],[-2.9460416,43.262238],[-2.9460335,43.262295],[-2.946071,43.262398],[-2.9459474,43.262684],[-2.9457197,43.26324],[-2.9454954,43.263775],[-2.9453866,43.264034],[-2.9453158,43.264214],[-2.9452336,43.264404],[-2.9451413,43.26463],[-2.9450912,43.264748],[-2.9450455,43.264866],[-2.9449694,43.264885],[-2.944882,43.264923],[-2.9448144,43.264965],[-2.9447577,43.26502],[-2.9446585,43.26527],[-2.9446816,43.265373],[-2.9447312,43.265453],[-2.9447792,43.265507],[-2.944836,43.26556],[-2.94485,43.265667],[-2.944854897832737,43.265751828443285],[-2.944629231867176,43.26634379771693],[-2.9443488,43.266403],[-2.943974,43.26647],[-2.9435883,43.26658],[-2.9434128,43.266792],[-2.9434047,43.26702],[-2.9434798,43.267227],[-2.943583,43.2674],[-2.9436526,43.2681],[-2.9413407,43.268864],[-2.941401493915312,43.26978777095705],[-2.9410508,43.269955],[-2.9406326,43.270054],[-2.940552,43.269913],[-2.9401176,43.269215],[-2.9393075,43.26937],[-2.9382079,43.26949],[-2.9367862,43.26951],[-2.934796,43.269424],[-2.9346726,43.269363],[-2.9339216,43.26942],[-2.9332135,43.26927],[-2.9324894,43.2691],[-2.931926,43.268894],[-2.9312663,43.268566],[-2.9302685,43.267967],[-2.9295979,43.26737],[-2.9281871,43.266132],[-2.9267495,43.264988],[-2.92499,43.263947],[-2.9244802,43.263584],[-2.9240725,43.262974],[-2.924051,43.262398],[-2.9242926,43.26175],[-2.9244883,43.26146],[-2.925081,43.26068],[-2.9252527,43.260555],[-2.9254754,43.260315],[-2.9257247,43.260063],[-2.9262075,43.25964],[-2.9265752,43.25936],[-2.9272375,43.258846],[-2.9273932,43.258633],[-2.9275508,43.25857],[-2.9277487,43.258564],[-2.9279492,43.25855],[-2.9285743,43.25808],[-2.9291937,43.257603],[-2.930442,43.25668],[-2.9304812,43.256676],[-2.9307027,43.256752],[-2.9310558,43.256886],[-2.9316409,43.2571],[-2.9327478,43.25715],[-2.9328387,43.25722],[-2.9338787,43.25727],[-2.9339185,43.25731],[-2.9340425,43.25736],[-2.9343765,43.257385],[-2.934574,43.25746],[-2.9347456,43.25756],[-2.9349656,43.25769],[-2.9353573,43.25791],[-2.9354367,43.25793],[-2.9355106,43.257923],[-2.9355767,43.257874],[-2.935615,43.257816],[-2.9356933,43.25763],[-2.9357812,43.25744],[-2.9362884,43.257458],[-2.9370003,43.257496],[-2.9383326,43.257557],[-2.940823,43.257683],[-2.941806,43.257732],[-2.942784,43.257786],[-2.9447255,43.25788],[-2.945614,43.257927],[-2.9458294,43.25794],[-2.9459782,43.257954],[-2.946021,43.258064],[-2.9460533,43.25809],[-2.9461093,43.25838],[-2.9458904,43.25838],[-2.9459238,43.258636],[-2.9459836,43.259125],[-2.9460506,43.259453],[-2.9461458,43.25979],[-2.946294,43.259933],[-2.9463525,43.25998],[-2.9464262,43.260033],[-2.9465923,43.260292],[-2.9468257,43.260582]]]}}]}