{"type":"FeatureCollection","name":"ZBE Zona de Bajas Emisiones de Burgos","features":[{"type":"Feature","properties":{"name":"Zona de Bajas Emisiones de Burgos","fuente":"OpenStreetMap · relation/17558121"},"geometry":{"type":"Polygon","coordinates":[[[-3.7110933,42.3415015],[-3.7111531,42.3415499],[-3.7111954,42.3416026],[-3.7114294,42.3418883],[-3.711512,42.341998],[-3.7115299,42.3420218],[-3.7115475,42.3420435],[-3.7115636,42.3420635],[-3.7115777,42.3420787],[-3.7116479,42.3421328],[-3.7116276,42.3420326],[-3.711555,42.3416528],[-3.7115519,42.3416186],[-3.7115523,42.3415853],[-3.7115597,42.3415324],[-3.7115655,42.3415068],[-3.7115652,42.3415041],[-3.7115838,42.3414526],[-3.7116186,42.3413717],[-3.7119108,42.340753],[-3.711977,42.3406132],[-3.7119808,42.3405873],[-3.7119746,42.3405674],[-3.7119689,42.340556],[-3.7117237,42.3404065],[-3.7115652,42.3403418],[-3.7114322,42.340286],[-3.7112935,42.3402278],[-3.7109993,42.3401282],[-3.7109775,42.3401208],[-3.7108212,42.3400732],[-3.7107718,42.3400606],[-3.7105572,42.3400027],[-3.7104417,42.3399829],[-3.7103943,42.3399748],[-3.710151,42.3399436],[-3.7098859,42.3399201],[-3.7098056,42.3399116],[-3.7096857,42.3399089],[-3.7095421,42.3399148],[-3.7093515,42.3399236],[-3.7092608,42.339927],[-3.7091961,42.3399288],[-3.7091414,42.3399295],[-3.7090507,42.3399217],[-3.7088258,42.3398727],[-3.7087382,42.3398368],[-3.7086837,42.339789],[-3.7084578,42.3395091],[-3.7083944,42.3394632],[-3.7083284,42.3394348],[-3.7079946,42.3393604],[-3.7079239,42.3393455],[-3.707689,42.3392936],[-3.7075871,42.3392853],[-3.7066702,42.339211],[-3.706427,42.3391913],[-3.7063051,42.3391814],[-3.7056377,42.3391354],[-3.7055095,42.3391266],[-3.7051531,42.3391021],[-3.7051111,42.3390992],[-3.7050487,42.3390949],[-3.7049892,42.3390868],[-3.7049609,42.3390792],[-3.7049372,42.3390698],[-3.7049175,42.3390572],[-3.7049036,42.339045],[-3.7048881,42.3390254],[-3.7048807,42.3390078],[-3.7048736,42.3389842],[-3.7048745,42.3389606],[-3.7048885,42.3389292],[-3.7049079,42.3389059],[-3.7049273,42.3388885],[-3.7049929,42.3388472],[-3.704977,42.3388332],[-3.7049257,42.3387881],[-3.7045374,42.3390288],[-3.7042879,42.339185],[-3.7036834,42.3395767],[-3.7036012,42.339617],[-3.7035806,42.3396031],[-3.7030243,42.3392297],[-3.7030235,42.339207],[-3.7029121,42.3392179],[-3.7026632,42.339244],[-3.702473,42.339274],[-3.7024184,42.3392333],[-3.702386,42.3392092],[-3.7024237,42.3391887],[-3.7024486,42.3391811],[-3.7024898,42.3391656],[-3.7025037,42.3391582],[-3.7025162,42.3391461],[-3.7025173,42.3391195],[-3.7024668,42.3391101],[-3.702453,42.3391067],[-3.7024401,42.3391018],[-3.7024283,42.3390956],[-3.7024179,42.3390882],[-3.7024113,42.3390819],[-3.702402,42.3390703],[-3.7023968,42.3390603],[-3.7023938,42.3390498],[-3.7023928,42.3390391],[-3.702394,42.3390285],[-3.7023973,42.339018],[-3.7024026,42.3390081],[-3.7024009,42.3389761],[-3.7023908,42.3389286],[-3.7023732,42.338873],[-3.7023708,42.3387916],[-3.7023501,42.338768],[-3.7023377,42.3387539],[-3.7023177,42.3387231],[-3.7022826,42.3386779],[-3.7021773,42.3385423],[-3.7020274,42.3383585],[-3.7018818,42.3383813],[-3.7017095,42.3383889],[-3.7016737,42.3383872],[-3.7008476,42.3383423],[-3.7007897,42.3383391],[-3.7006755,42.3383343],[-3.7002743,42.3383164],[-3.7001995,42.3383125],[-3.6991428,42.3382603],[-3.6990979,42.3382576],[-3.698955,42.3382506],[-3.698904,42.3382468],[-3.6988824,42.3382452],[-3.6986819,42.3382303],[-3.6985237,42.3382203],[-3.698414,42.338215],[-3.6981866,42.3382039],[-3.6982075,42.3382308],[-3.6982453,42.3382792],[-3.6982495,42.3383233],[-3.6982274,42.3383637],[-3.6981938,42.3383965],[-3.6981206,42.3384076],[-3.6980565,42.3384144],[-3.6979755,42.3384231],[-3.6973765,42.3384915],[-3.6973411,42.3384956],[-3.6968706,42.3385555],[-3.696706,42.3385765],[-3.6966008,42.3385901],[-3.6964497,42.3386108],[-3.6963692,42.3386225],[-3.6963252,42.3386286],[-3.6962136,42.3386439],[-3.6961996,42.3387257],[-3.6962995,42.3391011],[-3.6963526,42.3392932],[-3.6963874,42.3394188],[-3.6965333,42.3399523],[-3.6965768,42.3399466],[-3.696609,42.3399422],[-3.6966413,42.3399378],[-3.6966765,42.3400794],[-3.6966854,42.3401213],[-3.696693,42.3401554],[-3.6967158,42.3402868],[-3.6967339,42.3404152],[-3.6967397,42.3404536],[-3.6969115,42.3409459],[-3.6969173,42.3409611],[-3.6969269,42.3409862],[-3.6969361,42.3410151],[-3.69695,42.3410592],[-3.6969263,42.3410631],[-3.6968539,42.3410766],[-3.6968063,42.3410874],[-3.6968148,42.341115],[-3.6968118,42.3411587],[-3.6968053,42.3412094],[-3.6967746,42.3413751],[-3.6967561,42.3415436],[-3.6967336,42.3416161],[-3.6966699,42.341693],[-3.6966277,42.341787],[-3.6966189,42.3418254],[-3.6966131,42.3418577],[-3.6965399,42.3422623],[-3.6965127,42.3424109],[-3.6964569,42.3426971],[-3.696452,42.3427669],[-3.6964523,42.3428169],[-3.6964617,42.3428817],[-3.696486,42.3429613],[-3.6965858,42.3432012],[-3.6966418,42.3433237],[-3.6967593,42.3435456],[-3.6967843,42.3435921],[-3.6967997,42.3436107],[-3.6968171,42.3436294],[-3.6968339,42.3436429],[-3.6968886,42.3436753],[-3.6969854,42.3436715],[-3.6970716,42.3436786],[-3.6971416,42.3436985],[-3.6972984,42.3437218],[-3.6975521,42.3437846],[-3.6977655,42.3438373],[-3.6982345,42.3439533],[-3.6982745,42.3439632],[-3.6983309,42.3439771],[-3.6984733,42.3440123],[-3.6985747,42.3440374],[-3.6986142,42.3440472],[-3.6986441,42.3440546],[-3.6986867,42.3440651],[-3.6987243,42.3440844],[-3.6987465,42.3441081],[-3.6987583,42.3441423],[-3.6987562,42.3441683],[-3.6987422,42.3442049],[-3.698733,42.3442257],[-3.6987031,42.344293],[-3.6987034,42.3443438],[-3.6987088,42.3443748],[-3.6987177,42.3444053],[-3.6987304,42.3444314],[-3.6987499,42.3444588],[-3.698776,42.3444847],[-3.6988056,42.3445011],[-3.6988351,42.3445111],[-3.6988658,42.3445201],[-3.6989275,42.3445238],[-3.6991047,42.3445372],[-3.6993078,42.3444775],[-3.6997348,42.3442965],[-3.6998541,42.3442459],[-3.6998608,42.3442431],[-3.7003541,42.3440383],[-3.7004295,42.3440103],[-3.7004705,42.3440004],[-3.700568,42.3439955],[-3.7007135,42.3439977],[-3.7008803,42.3440024],[-3.7009545,42.3440091],[-3.7010677,42.3440252],[-3.7011515,42.3440434],[-3.701492,42.3441618],[-3.7016576,42.3442152],[-3.7017284,42.344235],[-3.7018161,42.3442504],[-3.7019097,42.3442491],[-3.7019909,42.344237],[-3.7020869,42.3442133],[-3.7021719,42.3441813],[-3.7022452,42.3441303],[-3.7022698,42.3441134],[-3.7023281,42.3440769],[-3.7023963,42.3440361],[-3.7024431,42.3440169],[-3.7025193,42.3439827],[-3.702629,42.34394],[-3.7028413,42.3438791],[-3.7030872,42.3438063],[-3.7031042,42.3438017],[-3.703139,42.3437927],[-3.7031832,42.3437788],[-3.7032793,42.3437633],[-3.703356,42.3437735],[-3.7034422,42.3437924],[-3.7036542,42.343845],[-3.7037725,42.343862],[-3.7039001,42.3438757],[-3.7039804,42.3438843],[-3.7046143,42.343967],[-3.704703,42.3439863],[-3.7047917,42.3440057],[-3.7047675,42.3439244],[-3.7047446,42.3438832],[-3.7046637,42.3438076],[-3.7046264,42.3437794],[-3.7045564,42.3437573],[-3.7044778,42.3437386],[-3.7044342,42.3437344],[-3.7043906,42.3437362],[-3.7042743,42.3437535],[-3.7041848,42.3437635],[-3.7041298,42.3437509],[-3.7040882,42.3437324],[-3.7040238,42.3436854],[-3.7039871,42.3436174],[-3.7039905,42.3435543],[-3.7040161,42.3435072],[-3.7040825,42.3434495],[-3.7041784,42.3434233],[-3.7043126,42.3434183],[-3.7045258,42.3434141],[-3.7046091,42.3434086],[-3.7047306,42.3433955],[-3.7047964,42.3433884],[-3.7049167,42.3433717],[-3.7049899,42.3433543],[-3.7050596,42.3433356],[-3.7051325,42.3432979],[-3.7051628,42.3432465],[-3.7051685,42.3431126],[-3.7051628,42.34291],[-3.7051695,42.3428109],[-3.7051957,42.3427172],[-3.7052611,42.3425011],[-3.705279,42.3424517],[-3.7053088,42.3423693],[-3.7053415,42.3422788],[-3.7053618,42.3422226],[-3.7054477,42.342056],[-3.7054739,42.3420036],[-3.7056071,42.341799],[-3.7057309,42.3416204],[-3.7059205,42.3413708],[-3.7061047,42.3411599],[-3.7063635,42.3409899],[-3.7067223,42.3407933],[-3.7067743,42.3407708],[-3.7068657,42.3407315],[-3.7069708,42.3406946],[-3.7070318,42.3406734],[-3.7070938,42.3406519],[-3.7071537,42.3406447],[-3.7071957,42.340641],[-3.7080825,42.3406387],[-3.7082022,42.3406384],[-3.7083302,42.3406828],[-3.7085794,42.3407719],[-3.7088985,42.3408929],[-3.7090942,42.3409575],[-3.7092037,42.3409827],[-3.709569,42.341051],[-3.7102836,42.3411903],[-3.7104499,42.3412205],[-3.7105165,42.3412338],[-3.7108157,42.3412955],[-3.7108464,42.3412997],[-3.7108804,42.3412976],[-3.7109888,42.3414069],[-3.711012,42.3414279],[-3.7110328,42.3414468],[-3.7110494,42.3414617],[-3.7110933,42.3415015]]]}}]}