{"type":"FeatureCollection","name":"ZBE caceres","features":[{"type":"Feature","properties":{"name":"ZBE Cáceres · Casco Histórico","fuente":"Trazado a partir de imagen · calidad: alta - mapa con calles"},"geometry":{"type":"Polygon","coordinates":[[[-6.3753,39.476],[-6.3742,39.4768],[-6.3725,39.4773],[-6.371,39.4773],[-6.3695,39.4768],[-6.3683,39.476],[-6.3675,39.4748],[-6.3672,39.4733],[-6.3678,39.472],[-6.369,39.471],[-6.3705,39.4705],[-6.372,39.4708],[-6.3735,39.4715],[-6.3748,39.4725],[-6.3757,39.4735],[-6.3762,39.4745],[-6.376,39.4753],[-6.3753,39.476]]]}}]}