{"type":"FeatureCollection","name":"ZBE castellon","features":[{"type":"Feature","properties":{"name":"ZBE Castellón · Centro","fuente":"Trazado a partir de imagen · calidad: alta - Google Maps con polígono"},"geometry":{"type":"Polygon","coordinates":[[[-0.0392,39.9883],[-0.0383,39.9892],[-0.037,39.9898],[-0.0353,39.99],[-0.0335,39.9892],[-0.0325,39.9876],[-0.0322,39.9858],[-0.0325,39.9842],[-0.0335,39.9828],[-0.0352,39.9818],[-0.037,39.9815],[-0.0388,39.9822],[-0.04,39.9838],[-0.0402,39.9858],[-0.0398,39.9875],[-0.0392,39.9883]]]}}]}