{"type":"FeatureCollection","name":"ZBE Ciudad Real","features":[{"type":"Feature","properties":{"name":"Zona Ciudad Real Saludable (ZCRS)","fuente":"Geojson oficial · Ayuntamiento de Ciudad Real"},"geometry":{"type":"Polygon","coordinates":[[[-3.928507473190564,38.98630247765735],[-3.928379392130182,38.98863746551555],[-3.9298155197223252,38.987622676451224],[-3.9299561196259845,38.987810023219396],[-3.9305084763924185,38.987333849212035],[-3.9306992905479774,38.98694354025892],[-3.9310809188591804,38.98705282698285],[-3.9314123329192228,38.98645174791449],[-3.9303578336387943,38.98565550544339],[-3.9309804903574275,38.98502318886722],[-3.930564546026858,38.98457335388014],[-3.93039274293335,38.98440466502325],[-3.930003925404918,38.983589329880715],[-3.9312246315958816,38.9832097741114],[-3.931260800627058,38.983048110854156],[-3.9298411645006013,38.983406581058546],[-3.9293980933637442,38.982766956473455],[-3.9305283768744914,38.98233819390086],[-3.9305102923379422,38.98225384685975],[-3.93035657378104,38.98205703670564],[-3.9296784036342842,38.98196566041858],[-3.926754452448847,38.982623345703786],[-3.9266987626676837,38.98334616540461],[-3.926463382531125,38.98328838608509],[-3.9268845890910313,38.984222479304606],[-3.9266368205259425,38.984424704048365],[-3.9253979777025165,38.984742484622245],[-3.9262032255375345,38.984906189209056],[-3.9272934072232886,38.984935078214505],[-3.927305795650881,38.98508915271151],[-3.927404903077246,38.98723653110639],[-3.928507473190564,38.98630247765735]]]}}]}