{"type":"FeatureCollection","name":"ZBE cordoba","features":[{"type":"Feature","properties":{"name":"ZBE Córdoba · Casco Histórico","fuente":"Trazado a partir de imagen · calidad: alta - Visor MITECO oficial"},"geometry":{"type":"Polygon","coordinates":[[[-4.79,37.8895],[-4.7895,37.8905],[-4.788,37.892],[-4.7855,37.893],[-4.782,37.8938],[-4.7775,37.894],[-4.772,37.893],[-4.7705,37.891],[-4.77,37.889],[-4.771,37.8865],[-4.7728,37.8843],[-4.7755,37.8825],[-4.78,37.881],[-4.7845,37.88],[-4.7895,37.881],[-4.792,37.883],[-4.7925,37.8855],[-4.7918,37.8878],[-4.79,37.8895]]]}}]}