{"type":"FeatureCollection","name":"ZBE cuenca","features":[{"type":"Feature","properties":{"name":"ZBE Cuenca · Centro","fuente":"Trazado a partir de imagen · calidad: alta - Visor MITECO oficial"},"geometry":{"type":"Polygon","coordinates":[[[-2.139,40.0742],[-2.1383,40.075],[-2.137,40.0755],[-2.1352,40.0758],[-2.134,40.0753],[-2.133,40.0742],[-2.1325,40.0728],[-2.1325,40.0712],[-2.133,40.0695],[-2.1342,40.0685],[-2.1358,40.068],[-2.1377,40.068],[-2.1392,40.0688],[-2.14,40.0703],[-2.14,40.072],[-2.1395,40.0735],[-2.139,40.0742]]]}}]}