{"type":"FeatureCollection","name":"ZBE Zona de Baixes Emissions de Girona","features":[{"type":"Feature","properties":{"name":"Zona de Baixes Emissions de Girona","fuente":"OpenStreetMap · relation/15049752"},"geometry":{"type":"Polygon","coordinates":[[[2.8234324,41.9759043],[2.8234607,41.9759097],[2.8234343,41.9759653],[2.8234605,41.9759729],[2.8233667,41.976229],[2.823326,41.97647],[2.8233178,41.9766655],[2.823328,41.9767882],[2.8233647,41.9769746],[2.8233994,41.9770855],[2.8234544,41.977261],[2.8235645,41.977558],[2.8236297,41.977755],[2.8236664,41.9778399],[2.8237194,41.9779672],[2.8237218,41.9779736],[2.8238315,41.9782672],[2.8239008,41.978437],[2.823962,41.9786218],[2.8239803,41.9787067],[2.8238389,41.9789699],[2.823822,41.9790259],[2.8237923,41.9791921],[2.8237303,41.9795545],[2.8236235,41.9801202],[2.8236258,41.9801533],[2.8235661,41.9803533],[2.823294,41.9810971],[2.8233136,41.9811164],[2.8233444,41.9811397],[2.8233841,41.9811556],[2.8234928,41.981159],[2.8235969,41.9811563],[2.823657,41.9811571],[2.8237201,41.9811511],[2.8237826,41.9811245],[2.8237907,41.9811334],[2.8237994,41.9811428],[2.8238928,41.9810278],[2.8241306,41.9806363],[2.8241483,41.9806106],[2.8241785,41.9806129],[2.8242443,41.9806215],[2.8242866,41.9806243],[2.8243358,41.9806251],[2.8243949,41.9806263],[2.8247415,41.9806371],[2.8248141,41.9806398],[2.824853,41.9806404],[2.8248876,41.9806417],[2.8249258,41.9806435],[2.8249929,41.9806341],[2.8250425,41.9806008],[2.8250858,41.9805615],[2.825137,41.9805163],[2.8251882,41.9804795],[2.8252361,41.9804581],[2.825292,41.9804522],[2.8253623,41.9804654],[2.8254484,41.980493],[2.8255282,41.9805205],[2.825594,41.9805438],[2.8256638,41.9805664],[2.8256906,41.9805714],[2.8257165,41.9805756],[2.8257708,41.9805769],[2.8258388,41.9805795],[2.8259001,41.9805818],[2.8259815,41.9805974],[2.8260421,41.9806214],[2.8261378,41.980662],[2.8262271,41.9807039],[2.8262664,41.9807174],[2.8262987,41.9807289],[2.8263063,41.9807304],[2.8263924,41.9807299],[2.8264879,41.9807295],[2.8264445,41.9809305],[2.8264414,41.9809427],[2.8263039,41.981258],[2.8262235,41.9814498],[2.8262122,41.9814902],[2.8262114,41.9815097],[2.8262105,41.9815331],[2.826212,41.9815701],[2.8262279,41.9816213],[2.8262512,41.981683],[2.8263325,41.9818979],[2.8263709,41.9820012],[2.8263907,41.9820498],[2.8263985,41.9820691],[2.8264058,41.9820887],[2.8264209,41.9821292],[2.8264228,41.9821341],[2.8264426,41.9821867],[2.8264656,41.982232],[2.8264975,41.9822702],[2.82655,41.9823239],[2.8268112,41.9825947],[2.826972,41.9827666],[2.8271163,41.9829148],[2.8271428,41.9829421],[2.8271779,41.982978],[2.8272289,41.9830295],[2.8272363,41.9830372],[2.8273241,41.9831212],[2.8273638,41.9831592],[2.8275757,41.9833346],[2.8276873,41.9834242],[2.8279279,41.9836092],[2.8279535,41.9836296],[2.8280099,41.9836745],[2.8279844,41.9836914],[2.8279697,41.9837108],[2.8279291,41.9837713],[2.827889,41.9838379],[2.8278611,41.9839083],[2.8278536,41.9839332],[2.8278081,41.9840215],[2.827808,41.9841572],[2.8278844,41.9841746],[2.8279555,41.9841928],[2.8279636,41.9841744],[2.8281711,41.9842408],[2.8281853,41.9842749],[2.8282363,41.9843156],[2.8282354,41.984331],[2.8283086,41.9844072],[2.8283828,41.9845175],[2.8287433,41.9848911],[2.8287525,41.9849098],[2.8287594,41.9849239],[2.8287433,41.985051],[2.8287124,41.9851839],[2.8286288,41.9855333],[2.8285594,41.9858304],[2.8284948,41.9860918],[2.8284464,41.9862884],[2.8283986,41.9865462],[2.8283954,41.9865942],[2.8284873,41.9866185],[2.8284825,41.9866317],[2.8284835,41.9867113],[2.8283927,41.9867097],[2.8283884,41.9867728],[2.8284862,41.986776],[2.8284932,41.9868714],[2.8283007,41.9868895],[2.8281774,41.9869655],[2.8279861,41.9870966],[2.8279931,41.9871114],[2.8279845,41.9871168],[2.8279461,41.9871395],[2.8278372,41.9872045],[2.8277512,41.9872505],[2.8277328,41.9872614],[2.8277144,41.9872722],[2.8277566,41.9873204],[2.8277815,41.9873501],[2.8278063,41.987341],[2.8278146,41.9873379],[2.8278271,41.9873333],[2.8278373,41.9873441],[2.8278227,41.9873493],[2.8277673,41.9873699],[2.8277722,41.9873799],[2.8276324,41.9874393],[2.8274817,41.9874711],[2.8273442,41.9875002],[2.8273244,41.9874665],[2.826984,41.987574],[2.8269611,41.9875788],[2.8267379,41.98767],[2.8265073,41.9877256],[2.8261547,41.987874],[2.8260922,41.9879291],[2.8260803,41.9882417],[2.8261896,41.9885314],[2.8255204,41.9888851],[2.8253902,41.9889634],[2.8250866,41.9891433],[2.8250237,41.9891746],[2.8249184,41.9892274],[2.8245776,41.9893985],[2.8244903,41.9894423],[2.8244495,41.9894094],[2.8241451,41.9891642],[2.8240242,41.9889252],[2.8239949,41.988875],[2.8239676,41.9888097],[2.8239232,41.9884569],[2.823907,41.9882932],[2.8239027,41.9882456],[2.8239318,41.9881719],[2.8238809,41.9881234],[2.8238622,41.9881188],[2.8238413,41.9881137],[2.8238269,41.9881102],[2.8230806,41.9880434],[2.8229607,41.9880353],[2.8229536,41.9880609],[2.8229493,41.9880764],[2.8228995,41.9882557],[2.8228783,41.988332],[2.8227532,41.9888454],[2.8227212,41.9889841],[2.8226971,41.989021],[2.8226715,41.989046],[2.8226582,41.9890534],[2.8226395,41.9890638],[2.8225716,41.9890843],[2.8225037,41.9891048],[2.8225274,41.9891326],[2.8225434,41.9891566],[2.8225565,41.9891816],[2.8225664,41.9892074],[2.8225731,41.9892338],[2.8225765,41.9892605],[2.8225766,41.9892874],[2.8225734,41.9893141],[2.822567,41.9893405],[2.8225573,41.9893664],[2.8225449,41.9893932],[2.8225283,41.9894161],[2.8225099,41.9894384],[2.8224884,41.9894599],[2.8224643,41.9894799],[2.8224379,41.9894981],[2.8224093,41.9895145],[2.8223789,41.9895288],[2.8223468,41.9895409],[2.8223134,41.9895509],[2.8222789,41.9895584],[2.8222436,41.9895636],[2.8221893,41.9895671],[2.8221535,41.9895662],[2.822118,41.9895628],[2.822083,41.989557],[2.8220489,41.9895489],[2.8220137,41.9895376],[2.8219837,41.9895255],[2.8219545,41.989511],[2.8219265,41.9894943],[2.8219008,41.9894757],[2.8218774,41.9894555],[2.8218565,41.9894338],[2.8218385,41.9894107],[2.8218233,41.9893865],[2.8218112,41.9893613],[2.8218022,41.9893355],[2.8217975,41.9893186],[2.8217945,41.9892755],[2.8217946,41.9892557],[2.8217986,41.9892291],[2.8218058,41.989203],[2.8218162,41.9891774],[2.8218297,41.9891527],[2.8218462,41.9891289],[2.8218655,41.9891064],[2.8218875,41.9890853],[2.821912,41.9890658],[2.8219388,41.9890481],[2.8219676,41.9890322],[2.8219983,41.9890184],[2.8220305,41.9890067],[2.8221026,41.9889488],[2.8221295,41.9889109],[2.8221463,41.9888425],[2.8222207,41.9885389],[2.8222704,41.9883285],[2.8222824,41.9882427],[2.8222811,41.9881869],[2.8222693,41.9881142],[2.8222663,41.9880971],[2.8222627,41.9880795],[2.8222355,41.9880144],[2.8222189,41.987988],[2.8221966,41.9879525],[2.8221187,41.9878588],[2.8218034,41.9875556],[2.8215955,41.9873572],[2.8215588,41.9873218],[2.8215002,41.9872654],[2.8214466,41.9872026],[2.8214076,41.9871138],[2.8213608,41.9870029],[2.8213157,41.9869902],[2.8212405,41.9869551],[2.8211713,41.9869083],[2.8210937,41.9868495],[2.8210682,41.9868261],[2.821042,41.986803],[2.8209996,41.9867529],[2.8209515,41.9866842],[2.8209298,41.9866256],[2.8207832,41.9865864],[2.8206573,41.986555],[2.8204624,41.9865073],[2.8198649,41.9863527],[2.8193916,41.9862304],[2.8186319,41.9860397],[2.8184618,41.9859965],[2.8179577,41.9858687],[2.817846,41.9858459],[2.8178083,41.9858339],[2.8177854,41.9858267],[2.8177376,41.9858085],[2.8176667,41.9857241],[2.8172939,41.9852854],[2.8172866,41.9852788],[2.8172677,41.9852547],[2.8171776,41.9851397],[2.8171434,41.9851386],[2.8171229,41.9851353],[2.8170877,41.9851286],[2.8170541,41.9851184],[2.8170303,41.9851097],[2.8170021,41.9850953],[2.8169674,41.9850721],[2.816929,41.9850358],[2.8169131,41.9850117],[2.8169016,41.9849942],[2.8168865,41.9849522],[2.8167184,41.9849424],[2.8166852,41.9849399],[2.8166522,41.9849366],[2.8164305,41.9848857],[2.8163606,41.9848738],[2.8163272,41.9848682],[2.8154783,41.9846931],[2.8154062,41.9846782],[2.8153405,41.9846647],[2.8147595,41.9845499],[2.8146734,41.9845342],[2.8146047,41.9845217],[2.8142886,41.984458],[2.8141817,41.9844388],[2.8140668,41.9844219],[2.8140071,41.9844157],[2.8139742,41.9844122],[2.813872,41.9844097],[2.8137426,41.9844118],[2.813658,41.9844129],[2.8135569,41.9844196],[2.8133701,41.9844364],[2.8133401,41.9844458],[2.8131185,41.984471],[2.8130056,41.9844831],[2.8129376,41.9844947],[2.8129334,41.9845105],[2.8129195,41.9845352],[2.8128921,41.9845612],[2.8128648,41.9845764],[2.8128377,41.9845842],[2.8127926,41.9845899],[2.8127585,41.9845878],[2.8127535,41.9845868],[2.8127223,41.9845764],[2.8126981,41.9845638],[2.8126816,41.9845524],[2.8126623,41.9845314],[2.8126561,41.9845191],[2.8126482,41.9844944],[2.812506,41.9845426],[2.8123652,41.9845883],[2.8121674,41.9846142],[2.8117442,41.9845921],[2.81168,41.9845883],[2.8116209,41.9845849],[2.8112397,41.9845663],[2.8109906,41.9845623],[2.8108835,41.9845681],[2.8107797,41.984581],[2.8106854,41.9845981],[2.8105654,41.984628],[2.8104219,41.9846684],[2.8102892,41.9847034],[2.8102408,41.9847162],[2.8100762,41.9847762],[2.8100855,41.9848083],[2.8100893,41.9848381],[2.8100874,41.9848635],[2.8100788,41.9848961],[2.8100665,41.9849245],[2.8100511,41.9849473],[2.8100259,41.9849746],[2.809996,41.9849992],[2.8099699,41.9850156],[2.8099409,41.9850288],[2.8099042,41.9850421],[2.8098651,41.9850509],[2.8098249,41.985056],[2.809787,41.9850569],[2.8097531,41.985054],[2.8097173,41.9850463],[2.8096745,41.9850332],[2.8096478,41.9850216],[2.8096229,41.9850079],[2.8095978,41.9849907],[2.809571,41.9849657],[2.8095409,41.9849257],[2.8095229,41.9848819],[2.8095176,41.9848362],[2.8095253,41.9847907],[2.8095456,41.9847474],[2.8095777,41.9847083],[2.8096084,41.9846826],[2.8096406,41.9846633],[2.8096758,41.9846472],[2.8097092,41.9846364],[2.8097761,41.984516],[2.8097938,41.9844767],[2.8098042,41.9844148],[2.8098072,41.9843987],[2.8098134,41.9843278],[2.809828,41.9842552],[2.8098489,41.9841968],[2.8098714,41.9841373],[2.8099036,41.9840766],[2.8099421,41.9840123],[2.809987,41.9839456],[2.8099125,41.9839217],[2.8098721,41.9839088],[2.8097551,41.9838714],[2.8091262,41.9835887],[2.809039,41.9834931],[2.8090485,41.9834299],[2.8090924,41.9827918],[2.809114,41.9825354],[2.8091551,41.9820491],[2.8091641,41.9819423],[2.80917,41.9818128],[2.8091784,41.9816969],[2.8092083,41.9812872],[2.8092096,41.981227],[2.8092413,41.9811799],[2.8093284,41.9811328],[2.8094269,41.9811382],[2.8100087,41.9811714],[2.81068,41.9812034],[2.8107259,41.9812057],[2.8107548,41.9812073],[2.8108349,41.9812119],[2.8108465,41.9811514],[2.8108529,41.9811281],[2.810869,41.9810229],[2.8109012,41.9808127],[2.8109294,41.9806288],[2.8109749,41.9803405],[2.8109976,41.9802143],[2.8110026,41.9801547],[2.8110028,41.9800951],[2.8110018,41.9800578],[2.8109983,41.9799938],[2.8109905,41.9799314],[2.8109822,41.9798982],[2.8109736,41.979867],[2.8109637,41.9798259],[2.8109572,41.9798009],[2.8108815,41.9795087],[2.8108187,41.9792274],[2.8108067,41.979173],[2.8107793,41.9790484],[2.8107568,41.9789927],[2.8107501,41.9789673],[2.8107435,41.9789423],[2.8107454,41.9789168],[2.8106985,41.9787837],[2.8106447,41.9786243],[2.8106229,41.9785586],[2.8105792,41.9784476],[2.8105527,41.9783906],[2.8102924,41.977791],[2.8102819,41.9777633],[2.8102746,41.977748],[2.8101925,41.9775457],[2.810071,41.977253],[2.8100411,41.977188],[2.8100104,41.9771214],[2.8099246,41.9769354],[2.809792,41.9767125],[2.8097542,41.9766297],[2.8097933,41.9766475],[2.809847,41.9766603],[2.809899,41.9766637],[2.8099501,41.9766631],[2.8100013,41.9766545],[2.8100385,41.9766429],[2.8100686,41.9766245],[2.8100984,41.9766012],[2.8101092,41.9765716],[2.8100968,41.9765317],[2.8101539,41.9765411],[2.8102688,41.9765431],[2.8102741,41.9765431],[2.8103327,41.9765441],[2.810339,41.9765442],[2.8104078,41.9765454],[2.8106418,41.9765494],[2.810676,41.9765498],[2.8107606,41.9765509],[2.8107724,41.976551],[2.8108309,41.9765517],[2.8110058,41.9765531],[2.8110752,41.9765536],[2.811149,41.9765541],[2.8115971,41.9765571],[2.8117098,41.9765579],[2.8118272,41.9765591],[2.8118343,41.9765591],[2.8119456,41.9765592],[2.8120306,41.9765601],[2.8122188,41.9765645],[2.8122525,41.9765648],[2.8123579,41.9765656],[2.8132104,41.9765658],[2.8133554,41.9765567],[2.8135294,41.976543],[2.8137556,41.9764915],[2.8139942,41.9764092],[2.8144202,41.9762142],[2.8144607,41.9761933],[2.8145336,41.9761556],[2.8148433,41.9759962],[2.8149246,41.9759576],[2.8150108,41.9759166],[2.8151644,41.9758734],[2.81556,41.9757956],[2.8164459,41.9756221],[2.8166237,41.9755865],[2.8167668,41.9755969],[2.8168439,41.9755813],[2.8175389,41.9754403],[2.8181188,41.9753202],[2.8181968,41.975304],[2.8189047,41.9751573],[2.8189384,41.9751504],[2.8190067,41.9751363],[2.8195452,41.9750246],[2.8199628,41.974938],[2.8202524,41.974878],[2.8203229,41.9748634],[2.8205078,41.9748251],[2.8206506,41.9747958],[2.8207204,41.974782],[2.8212859,41.9746673],[2.8220995,41.9745023],[2.8222476,41.9744722],[2.8223849,41.9744506],[2.8233883,41.974293],[2.823405,41.9742903],[2.8234511,41.9742831],[2.8234915,41.9742769],[2.8235195,41.9742727],[2.8235523,41.9742677],[2.8236586,41.9742515],[2.8239866,41.9742015],[2.8242246,41.9741653],[2.8242462,41.9742185],[2.8242761,41.9742671],[2.824312,41.9743047],[2.8243564,41.9743373],[2.8244144,41.9743664],[2.8244718,41.9743848],[2.8245167,41.9743935],[2.8245903,41.9743982],[2.8246162,41.9743971],[2.8246618,41.9745259],[2.8245799,41.9745435],[2.8245619,41.9745474],[2.8245758,41.9745683],[2.824581,41.974576],[2.8244999,41.9746195],[2.8243699,41.9747632],[2.8243283,41.9747967],[2.8242309,41.9748883],[2.8241626,41.9749391],[2.8240948,41.9749895],[2.8239621,41.9750873],[2.823948,41.9751038],[2.8239527,41.9751257],[2.823968,41.9751824],[2.8239762,41.9752147],[2.8239562,41.9752365],[2.823806,41.9753683],[2.8236968,41.9754965],[2.8236855,41.975512],[2.8235266,41.9757304],[2.8234324,41.9759043]]]}}]}