{"type":"FeatureCollection","name":"ZBE guadalajara","features":[{"type":"Feature","properties":{"name":"ZBE Guadalajara · Centro y Aguas Vivas","fuente":"Trazado a partir de imagen · calidad: alta - Visor MITECO oficial"},"geometry":{"type":"Polygon","coordinates":[[[-3.173,40.6395],[-3.1715,40.6402],[-3.17,40.6398],[-3.1685,40.6388],[-3.167,40.6375],[-3.1655,40.6358],[-3.1645,40.634],[-3.1635,40.632],[-3.1633,40.6298],[-3.164,40.6275],[-3.1648,40.6253],[-3.166,40.6235],[-3.168,40.6225],[-3.1705,40.6225],[-3.1728,40.6232],[-3.1748,40.6248],[-3.1762,40.627],[-3.177,40.6293],[-3.1772,40.6315],[-3.1768,40.6338],[-3.1758,40.6358],[-3.1745,40.6378],[-3.173,40.6395]]]}}]}