{"type":"FeatureCollection","name":"ZBE huesca","features":[{"type":"Feature","properties":{"name":"ZBE Huesca · Casco Histórico","fuente":"Trazado a partir de imagen · calidad: alta - plano oficial ordenanza"},"geometry":{"type":"Polygon","coordinates":[[[-0.4115,42.1395],[-0.4108,42.1402],[-0.409,42.1408],[-0.4073,42.141],[-0.4055,42.1405],[-0.404,42.1395],[-0.403,42.138],[-0.4025,42.1365],[-0.403,42.1352],[-0.4045,42.1342],[-0.4068,42.1335],[-0.409,42.1335],[-0.411,42.134],[-0.4123,42.1352],[-0.4128,42.137],[-0.4123,42.1385],[-0.4115,42.1395]]]}}]}