{"type":"FeatureCollection","name":"ZBE jaen","features":[{"type":"Feature","properties":{"name":"ZBE Jaén · Casco + Sur","fuente":"Trazado a partir de imagen · calidad: alta - mapa RACE con calles"},"geometry":{"type":"Polygon","coordinates":[[[-3.797,37.7665],[-3.7965,37.768],[-3.7948,37.7693],[-3.792,37.77],[-3.7895,37.7702],[-3.7878,37.7693],[-3.7868,37.767],[-3.7865,37.7645],[-3.7872,37.7625],[-3.7882,37.7605],[-3.7895,37.7585],[-3.7902,37.756],[-3.7908,37.7535],[-3.7918,37.753],[-3.7928,37.7548],[-3.793,37.7575],[-3.7932,37.76],[-3.7945,37.7625],[-3.7958,37.7645],[-3.797,37.7665]]]}}]}