{"type":"FeatureCollection","name":"ZBE Zona de Bajas Emisiones de León","features":[{"type":"Feature","properties":{"name":"Zona de Bajas Emisiones de León","fuente":"OpenStreetMap · relation/19296768"},"geometry":{"type":"Polygon","coordinates":[[[-5.5793149,42.6021765],[-5.57932,42.6020314],[-5.5795348,42.6018788],[-5.5799349,42.601822],[-5.5808999,42.6012418],[-5.5814264,42.6010468],[-5.5815812,42.6009353],[-5.5816053,42.6008517],[-5.5815931,42.6007551],[-5.5815342,42.6006688],[-5.5812979,42.6003995],[-5.5808714,42.5999274],[-5.5805871,42.5996251],[-5.5790022,42.5978754],[-5.5779074,42.5966676],[-5.5775468,42.5965623],[-5.5774906,42.5963741],[-5.5776889,42.596061],[-5.5776534,42.5956242],[-5.5767744,42.5941215],[-5.5766646,42.5940006],[-5.5765673,42.5938729],[-5.5763959,42.593781],[-5.5762156,42.5937813],[-5.5745562,42.5938469],[-5.5743321,42.593992],[-5.574116,42.5939942],[-5.573984,42.5939379],[-5.5739032,42.5938844],[-5.5736197,42.5938825],[-5.5723502,42.5939443],[-5.5710707,42.5939885],[-5.5706693,42.5939949],[-5.5704662,42.5939555],[-5.5702287,42.59378],[-5.5683148,42.5930512],[-5.5670683,42.5939129],[-5.5663235,42.594442],[-5.5667351,42.5947657],[-5.5667696,42.5949092],[-5.56676,42.5950517],[-5.5667346,42.5956189],[-5.5662105,42.5960846],[-5.5657598,42.5965346],[-5.565684,42.5967217],[-5.5656944,42.59685],[-5.5657163,42.5976229],[-5.5657105,42.5977412],[-5.5658722,42.5980701],[-5.5653738,42.5983967],[-5.5652501,42.5985602],[-5.5652073,42.5986667],[-5.5652544,42.5988661],[-5.5650085,42.599528],[-5.5651797,42.6000348],[-5.5653259,42.6003027],[-5.5656979,42.6006502],[-5.5664818,42.6012969],[-5.5666845,42.6015501],[-5.5668391,42.6017544],[-5.5671419,42.6024161],[-5.5672936,42.602723],[-5.5675873,42.6032331],[-5.5676934,42.6032546],[-5.5695627,42.6027908],[-5.5701354,42.6026468],[-5.5715019,42.6030952],[-5.5721838,42.6033165],[-5.5737632,42.6037886],[-5.5740686,42.6038338],[-5.5747217,42.6040265],[-5.5748648,42.6040262],[-5.5753626,42.6041623],[-5.5770502,42.6045244],[-5.577727,42.6046332],[-5.578138,42.6046673],[-5.5786655,42.6046566],[-5.5790156,42.6046233],[-5.5798854,42.604492],[-5.5800348,42.6044555],[-5.5800651,42.6044019],[-5.5800776,42.6043398],[-5.5798096,42.6038891],[-5.5797028,42.6036493],[-5.579613,42.6033164],[-5.5795933,42.6026961],[-5.5795455,42.6025493],[-5.5793149,42.6021765]]]}}]}