{"type":"FeatureCollection","name":"ZBE Zona de Baixes Emissions de Lleida","features":[{"type":"Feature","properties":{"name":"Zona de Baixes Emissions de Lleida","fuente":"OpenStreetMap · way/1298099591"},"geometry":{"type":"Polygon","coordinates":[[[0.6194394,41.6189986],[0.6206783,41.6164695],[0.6208295,41.6161658],[0.620874,41.6160571],[0.6209066,41.615953],[0.6209244,41.6158377],[0.6209229,41.6156659],[0.6209081,41.6155562],[0.6198095,41.6130955],[0.6195953,41.6126309],[0.6195576,41.612518],[0.6195379,41.6124266],[0.6195625,41.6122962],[0.6196394,41.6121743],[0.6223637,41.6105948],[0.6239034,41.6119795],[0.624085,41.6120498],[0.6246184,41.6125009],[0.6246382,41.612611],[0.6254252,41.6132561],[0.6255592,41.6132963],[0.6263634,41.6139764],[0.6272797,41.6148569],[0.627725,41.6153502],[0.6273755,41.6155088],[0.6273989,41.6155395],[0.6275973,41.6154563],[0.6276138,41.6154818],[0.6277848,41.6154056],[0.6290717,41.6168063],[0.6308189,41.6187788],[0.631905,41.6199738],[0.6318619,41.6200236],[0.6318628,41.6201056],[0.6319658,41.620405],[0.6279821,41.6225652],[0.624682,41.621181],[0.6194394,41.6189986]]]}}]}