{"type":"FeatureCollection","name":"ZBE lugo","features":[{"type":"Feature","properties":{"name":"ZBE Lugo · Recinto Amurallado","fuente":"Trazado a partir de imagen · calidad: alta - mapa RACE con calles"},"geometry":{"type":"Polygon","coordinates":[[[-7.5598,43.0117],[-7.5598,43.0125],[-7.5595,43.0133],[-7.5588,43.014],[-7.5575,43.0145],[-7.556,43.0148],[-7.5545,43.0148],[-7.553,43.0145],[-7.5518,43.014],[-7.551,43.0133],[-7.5505,43.0125],[-7.5505,43.0117],[-7.5508,43.0108],[-7.5513,43.01],[-7.5523,43.0093],[-7.5538,43.009],[-7.5555,43.0088],[-7.557,43.009],[-7.5582,43.0095],[-7.5592,43.0103],[-7.5598,43.011],[-7.5598,43.0117]]]}}]}