{
  "type": "FeatureCollection",
  "name": "ZBE Madrid Distrito Centro (DEMO — sustituir por trazado oficial)",
  "features": [
    {
      "type": "Feature",
      "properties": {
        "name": "Madrid Distrito Centro",
        "fuente": "DEMO – polígono aproximado, no oficial"
      },
      "geometry": {
        "type": "Polygon",
        "coordinates": [[
          [-3.7152, 40.4232],
          [-3.7008, 40.4262],
          [-3.6925, 40.4202],
          [-3.6891, 40.4068],
          [-3.7038, 40.4002],
          [-3.7113, 40.4078],
          [-3.7152, 40.4126],
          [-3.7180, 40.4180],
          [-3.7152, 40.4232]
        ]]
      }
    }
  ]
}
