{"type":"FeatureCollection","name":"ZBE Madrid - Plaza Elíptica","features":[{"type":"Feature","properties":{"name":"Madrid - Plaza Elíptica","calidad":"reviewed_from_uploaded_boundary_points"},"geometry":{"type":"Polygon","coordinates":[[[-3.726764858133671,40.38174739533417],[-3.726686,40.381813],[-3.726547,40.381927],[-3.7264314,40.382023],[-3.7263122,40.38212],[-3.7262943,40.382133],[-3.7262912,40.382137],[-3.7262807,40.382145],[-3.726269,40.382153],[-3.7262614,40.38216],[-3.7261755,40.38223],[-3.7260365,40.382343],[-3.7259445,40.38242],[-3.7259197,40.38244],[-3.7258677,40.38248],[-3.725836,40.382507],[-3.725781,40.382553],[-3.7257128,40.38258],[-3.7256906,40.382595],[-3.725666,40.382618],[-3.7256474,40.382633],[-3.7256474,40.382637],[-3.7256427,40.382637],[-3.7255785,40.382694],[-3.7254815,40.382774],[-3.7254782,40.38278],[-3.725415,40.382828],[-3.7254088,40.38283],[-3.7253783,40.38286],[-3.7253134,40.382908],[-3.7252421,40.38297],[-3.7252352,40.38296],[-3.725234,40.382965],[-3.7250822,40.38309],[-3.7249718,40.38315],[-3.724924,40.383175],[-3.724868,40.383114],[-3.7248235,40.383137],[-3.7247448,40.38305],[-3.7247436,40.383053],[-3.7246845,40.383083],[-3.7246494,40.383102],[-3.7246008,40.383144],[-3.7245913,40.383133],[-3.7245889,40.383133],[-3.7245376,40.38318],[-3.724445,40.38323],[-3.7242894,40.383316],[-3.724131,40.3834],[-3.7239754,40.383484],[-3.7238185,40.383568],[-3.723657,40.383656],[-3.7236614,40.38365],[-3.7236474,40.383644],[-3.7235963,40.383675],[-3.7235618,40.383694],[-3.7235055,40.383724],[-3.723558927559615,40.38382103600017],[-3.7235384,40.38383],[-3.7234328,40.38398],[-3.723476,40.384014],[-3.723521,40.384056],[-3.7235212,40.384056],[-3.723584,40.38411],[-3.7235847,40.38411],[-3.7235897,40.384113],[-3.7235994,40.38412],[-3.7236373,40.384155],[-3.7237396,40.384243],[-3.7237244,40.384304],[-3.723626,40.384293],[-3.723617,40.38434],[-3.723608,40.384377],[-3.723591,40.38445],[-3.7235878,40.384464],[-3.723635,40.38447],[-3.7236192,40.38455],[-3.7236168,40.38455],[-3.7236168,40.384556],[-3.7235925,40.38466],[-3.7235756,40.384727],[-3.7235742,40.384735],[-3.7235503,40.384834],[-3.7235482,40.384842],[-3.7235458,40.384842],[-3.7235265,40.38492],[-3.72347,40.38491],[-3.7234468,40.38501],[-3.7234395,40.38504],[-3.7234466,40.385044],[-3.7234352,40.385082],[-3.723526,40.385098],[-3.7235181,40.385128],[-3.7234888,40.38525],[-3.7233968,40.38524],[-3.7233868,40.385277],[-3.7232797,40.38526],[-3.723192,40.38525],[-3.723009,40.385223],[-3.7229602,40.385216],[-3.7228227,40.385197],[-3.7227318,40.385185],[-3.722635,40.385174],[-3.722595,40.385166],[-3.7224476,40.38515],[-3.7223413,40.385143],[-3.722295,40.38514],[-3.7222612,40.385136],[-3.722187,40.38513],[-3.7220726,40.385128],[-3.7219136,40.385124],[-3.7218113,40.38512],[-3.7217336,40.3851],[-3.7214851,40.385036],[-3.7214153,40.38502],[-3.721298,40.385075],[-3.7212758,40.385086],[-3.7212522,40.385094],[-3.721224,40.3851],[-3.7211947,40.38511],[-3.72117,40.385113],[-3.7211454,40.385117],[-3.7211158,40.385117],[-3.72104,40.385117],[-3.7209594,40.385117],[-3.7208931,40.385113],[-3.7207012,40.385113],[-3.7205079,40.385113],[-3.7203577,40.385113],[-3.7203171,40.385113],[-3.7201214,40.38511],[-3.7199662,40.385136],[-3.7198887,40.38515],[-3.7198815,40.385155],[-3.7198746,40.385155],[-3.7198675,40.38516],[-3.7198646,40.38516],[-3.7197807,40.385155],[-3.7196822,40.385155],[-3.7195792,40.385155],[-3.7195766,40.38529],[-3.719576,40.385326],[-3.719576,40.38533],[-3.719583,40.38533],[-3.7195823,40.385372],[-3.719681,40.385372],[-3.7196813,40.38538],[-3.7196803,40.385475],[-3.71968,40.385487],[-3.7196796,40.38554],[-3.7196786,40.385582],[-3.7196789,40.3856],[-3.7196786,40.385654],[-3.7196784,40.38567],[-3.7196481,40.38569],[-3.7196476,40.38575],[-3.7196581,40.385754],[-3.7196689,40.38576],[-3.7196784,40.38577],[-3.7196832,40.385773],[-3.7196867,40.385777],[-3.719694,40.385788],[-3.719701,40.385796],[-3.7197046,40.385803],[-3.7197046,40.385807],[-3.7197013,40.385937],[-3.719698,40.385944],[-3.719692,40.38595],[-3.719685,40.385952],[-3.719678,40.385956],[-3.7196698,40.385956],[-3.7196603,40.385956],[-3.7196596,40.385956],[-3.7195728,40.386097],[-3.7195084,40.3862],[-3.7194932,40.386227],[-3.7194839,40.38624],[-3.7194738,40.38625],[-3.7194629,40.38626],[-3.7194514,40.38627],[-3.719439,40.38628],[-3.7194262,40.38629],[-3.7194126,40.3863],[-3.7193985,40.386307],[-3.7193253,40.38635],[-3.7193234,40.386345],[-3.7189152,40.386482],[-3.718885,40.386494],[-3.71858,40.386597],[-3.7183626,40.38667],[-3.718248,40.386707],[-3.7181988,40.386726],[-3.7181985,40.386726],[-3.7181582,40.386738],[-3.7181466,40.386745],[-3.7181349,40.386753],[-3.7181208,40.38676],[-3.7181067,40.386765],[-3.7180915,40.386772],[-3.7180762,40.386772],[-3.718055,40.386776],[-3.7179866,40.386772],[-3.717903,40.386765],[-3.7178543,40.386738],[-3.7178447,40.386734],[-3.717844,40.386734],[-3.7178082,40.386726],[-3.7173178,40.38663],[-3.7172227,40.386612],[-3.7171016,40.38659],[-3.717005,40.38657],[-3.7170048,40.38657],[-3.7170014,40.38658],[-3.716965,40.386692],[-3.7169642,40.386692],[-3.7169638,40.386692],[-3.7169633,40.386696],[-3.7169626,40.386696],[-3.7169607,40.3867],[-3.716958,40.3867],[-3.7169578,40.3867],[-3.7169547,40.386703],[-3.716951,40.386703],[-3.716947,40.386703],[-3.7169456,40.386703],[-3.716943,40.386703],[-3.7169394,40.386703],[-3.7169387,40.386703],[-3.7169309,40.386696],[-3.7168806,40.386734],[-3.7168684,40.386745],[-3.7168698,40.386745],[-3.7168746,40.38675],[-3.7168787,40.386753],[-3.716879,40.386753],[-3.7168822,40.386753],[-3.7168825,40.386753],[-3.7168882,40.38676],[-3.7168932,40.38677],[-3.7168975,40.386772],[-3.7169008,40.38678],[-3.7169034,40.386787],[-3.7169042,40.38679],[-3.7169049,40.386795],[-3.7169056,40.386803],[-3.7169054,40.386806],[-3.7169054,40.38681],[-3.7169042,40.386818],[-3.716902,40.386826],[-3.716899,40.386833],[-3.7168949,40.386837],[-3.7168927,40.38684],[-3.71689,40.386845],[-3.7168844,40.386852],[-3.71688,40.386856],[-3.7168782,40.386856],[-3.716871,40.386864],[-3.7168636,40.386868],[-3.7168553,40.38687],[-3.7168467,40.386875],[-3.7168376,40.386875],[-3.7168355,40.38688],[-3.716819,40.38688],[-3.716805,40.38688],[-3.7167966,40.38688],[-3.716701,40.38686],[-3.716679,40.386856],[-3.716486,40.38682],[-3.7164419,40.386814],[-3.7163398,40.386795],[-3.716331,40.386795],[-3.7163222,40.386795],[-3.7163138,40.386795],[-3.7163131,40.386795],[-3.7163043,40.386795],[-3.7162955,40.386795],[-3.7162867,40.386795],[-3.7162778,40.3868],[-3.716269,40.3868],[-3.7162602,40.3868],[-3.7162516,40.386803],[-3.716243,40.386803],[-3.7160895,40.38688],[-3.716044,40.38692],[-3.7160373,40.386917],[-3.7160335,40.38692],[-3.7160316,40.386925],[-3.7159944,40.38696],[-3.715963,40.38699],[-3.7159164,40.387035],[-3.715901,40.38705],[-3.71588,40.387074],[-3.7158492,40.387104],[-3.7157857,40.387165],[-3.715754,40.38719],[-3.7157032,40.38724],[-3.7156641,40.387276],[-3.7155817,40.387352],[-3.715539,40.387394],[-3.7154331,40.387493],[-3.7153952,40.38753],[-3.7152762,40.387646],[-3.715108,40.387814],[-3.7150946,40.387825],[-3.7149668,40.387947],[-3.7149045,40.38801],[-3.714801,40.388107],[-3.7145944,40.38831],[-3.7145045,40.388393],[-3.7139075,40.388966],[-3.7138233,40.389038],[-3.7137203,40.389126],[-3.7136855,40.389156],[-3.7135699,40.389248],[-3.7133431,40.389416],[-3.7132473,40.38948],[-3.7131536,40.38954],[-3.7130785,40.38959],[-3.7130303,40.389618],[-3.712999,40.389637],[-3.7127976,40.38976],[-3.7127273,40.389797],[-3.7126417,40.38984],[-3.712548,40.38989],[-3.7124648,40.38993],[-3.7123885,40.389965],[-3.7123125,40.39],[-3.7122374,40.390034],[-3.7122269,40.390038],[-3.7121038,40.39009],[-3.7121036,40.39009],[-3.7120786,40.390053],[-3.7120702,40.39004],[-3.7120683,40.390038],[-3.7120419,40.39],[-3.7120245,40.389973],[-3.71202,40.389965],[-3.712015,40.389957],[-3.7120094,40.38995],[-3.712007,40.389946],[-3.7120042,40.389942],[-3.7119455,40.38986],[-3.7119098,40.3898],[-3.7118726,40.389748],[-3.7118416,40.3897],[-3.711812,40.389595],[-3.7118099,40.389606],[-3.7118044,40.38965],[-3.71179,40.389626],[-3.7117844,40.389618],[-3.7117841,40.389618],[-3.7117753,40.38958],[-3.7117848,40.389584],[-3.711794,40.389587],[-3.7117965,40.389587],[-3.7118237,40.389477],[-3.7118318,40.38946],[-3.711841,40.389442],[-3.7118425,40.38944],[-3.7119863,40.38914],[-3.7119973,40.38912],[-3.711998,40.389114],[-3.712,40.38911],[-3.7120335,40.389038],[-3.7120485,40.38901],[-3.7120974,40.38891],[-3.7121203,40.38886],[-3.7121696,40.388756],[-3.7121766,40.38873],[-3.7121775,40.388718],[-3.7121775,40.38871],[-3.712176,40.3887],[-3.7121737,40.38869],[-3.7121701,40.38868],[-3.7121663,40.38867],[-3.7121615,40.38866],[-3.7121556,40.388653],[-3.7121718,40.388615],[-3.7121775,40.388603],[-3.7121868,40.388584],[-3.7121959,40.388565],[-3.7122064,40.388546],[-3.712218,40.388527],[-3.7122307,40.38851],[-3.7122436,40.388493],[-3.712263,40.388466],[-3.7123716,40.388344],[-3.7124302,40.388287],[-3.7125196,40.388203],[-3.7125196,40.3882],[-3.7125301,40.38819],[-3.712535,40.388187],[-3.7125385,40.388184],[-3.7125487,40.388176],[-3.7125595,40.388134],[-3.7126038,40.38797],[-3.7126124,40.38794],[-3.7125957,40.387936],[-3.7125888,40.38793],[-3.7125828,40.387928],[-3.712578,40.387924],[-3.7125733,40.38792],[-3.7125685,40.387913],[-3.712566,40.387905],[-3.7125635,40.3879],[-3.7125611,40.387894],[-3.7125611,40.387886],[-3.712562,40.38788],[-3.7125633,40.38787],[-3.7125676,40.38782],[-3.7125685,40.387806],[-3.7125695,40.3878],[-3.7125726,40.387753],[-3.712573,40.38775],[-3.712576,40.387722],[-3.7125778,40.387703],[-3.712592,40.38756],[-3.7126088,40.387383],[-3.712613,40.38734],[-3.712614,40.38733],[-3.712616,40.38731],[-3.7126174,40.387295],[-3.712628,40.387177],[-3.7126539,40.386887],[-3.7126584,40.386837],[-3.7126691,40.38673],[-3.7126725,40.386684],[-3.7126877,40.38649],[-3.712724,40.38647],[-3.7127347,40.386395],[-3.7127395,40.38636],[-3.712748,40.386295],[-3.7126994,40.386253],[-3.7126908,40.38623],[-3.7126894,40.386204],[-3.7126422,40.386097],[-3.7125952,40.385994],[-3.7125845,40.385967],[-3.7125845,40.38596],[-3.7125843,40.385956],[-3.7125702,40.385956],[-3.7125654,40.38596],[-3.712561,40.38596],[-3.7125056,40.385883],[-3.7124436,40.3858],[-3.7124162,40.385765],[-3.7124138,40.38576],[-3.7124114,40.385754],[-3.7124102,40.38575],[-3.71241,40.385742],[-3.71241,40.38574],[-3.7124124,40.38573],[-3.7124147,40.385727],[-3.712417,40.38572],[-3.7123954,40.38568],[-3.7123625,40.385624],[-3.7123532,40.38561],[-3.7123036,40.385586],[-3.7123,40.385586],[-3.7122977,40.385582],[-3.7122629,40.385532],[-3.7122376,40.385494],[-3.712207,40.385452],[-3.712191,40.38543],[-3.7121909,40.385403],[-3.7121909,40.38539],[-3.7121887,40.385303],[-3.7122424,40.385265],[-3.7121418,40.38512],[-3.7121205,40.38509],[-3.7121067,40.385075],[-3.7120967,40.385063],[-3.7120812,40.385044],[-3.7120774,40.385036],[-3.7120762,40.38503],[-3.712075,40.38502],[-3.712082,40.385014],[-3.712089,40.385006],[-3.7120972,40.385006],[-3.712101,40.385002],[-3.7121735,40.384975],[-3.712177,40.38498],[-3.7121956,40.384964],[-3.7121992,40.384968],[-3.7122421,40.38494],[-3.7122579,40.384933],[-3.7122836,40.384922],[-3.712347,40.38489],[-3.7124078,40.38486],[-3.7124324,40.38485],[-3.712497,40.38482],[-3.712591,40.384773],[-3.7126646,40.3848],[-3.7126698,40.3848],[-3.7126818,40.384796],[-3.7127054,40.38478],[-3.712726,40.38477],[-3.7127523,40.384754],[-3.7127554,40.384754],[-3.7127826,40.384735],[-3.712807,40.384724],[-3.7128103,40.384724],[-3.7128713,40.384686],[-3.7129195,40.384655],[-3.7129462,40.384636],[-3.7129707,40.384617],[-3.7130022,40.38459],[-3.7130327,40.384563],[-3.7130377,40.384556],[-3.7130501,40.384544],[-3.713091,40.384502],[-3.713099,40.38449],[-3.7131042,40.384487],[-3.7131305,40.384453],[-3.7131617,40.38441],[-3.713177,40.38439],[-3.7132566,40.384277],[-3.713296,40.384224],[-3.713311,40.3842],[-3.7134287,40.384037],[-3.7134366,40.384026],[-3.7134695,40.38398],[-3.7135158,40.383907],[-3.7135274,40.38389],[-3.7135334,40.383877],[-3.713539,40.383865],[-3.7135506,40.383842],[-3.7135596,40.383823],[-3.7135437,40.383812],[-3.713517,40.383797],[-3.7135065,40.383793],[-3.7135143,40.383774],[-3.713518,40.383766],[-3.713544,40.383667],[-3.7135644,40.38359],[-3.7135699,40.383564],[-3.7135725,40.383553],[-3.71358,40.38351],[-3.7135854,40.38346],[-3.7135863,40.38345],[-3.7135863,40.383434],[-3.7135837,40.38341],[-3.7135792,40.383392],[-3.7135787,40.383392],[-3.71357,40.38336],[-3.7135642,40.38335],[-3.7135413,40.383297],[-3.7135255,40.383266],[-3.71351,40.38324],[-3.7135072,40.383236],[-3.7134955,40.383217],[-3.7134871,40.383205],[-3.7134812,40.383194],[-3.713474,40.383183],[-3.7134693,40.38317],[-3.7134643,40.383156],[-3.7134604,40.38314],[-3.7134595,40.383137],[-3.7134583,40.383133],[-3.7134504,40.383076],[-3.713449,40.383045],[-3.7134488,40.383026],[-3.7134485,40.383007],[-3.7134476,40.382935],[-3.7134469,40.382893],[-3.7134445,40.382736],[-3.7134798,40.382717],[-3.7134843,40.382713],[-3.713502,40.38271],[-3.7135208,40.38271],[-3.7138095,40.3827],[-3.7139578,40.3827],[-3.7140331,40.3827],[-3.7141929,40.382698],[-3.714237,40.382698],[-3.7142367,40.382683],[-3.7142816,40.382683],[-3.7143703,40.382683],[-3.7145338,40.38268],[-3.7146409,40.38268],[-3.714793,40.382687],[-3.714793,40.38268],[-3.7148178,40.382683],[-3.714992,40.382683],[-3.7150073,40.38268],[-3.7150297,40.382683],[-3.715051,40.382687],[-3.7150688,40.38269],[-3.7150853,40.382698],[-3.7151031,40.382706],[-3.7151172,40.382717],[-3.7151327,40.38273],[-3.7151434,40.382744],[-3.715165,40.38277],[-3.7151756,40.382782],[-3.7151875,40.382797],[-3.7152019,40.38281],[-3.7152102,40.382816],[-3.715214,40.38282],[-3.7152221,40.382828],[-3.715365,40.38292],[-3.7155828,40.383064],[-3.7155912,40.38307],[-3.7156267,40.383095],[-3.715635,40.3831],[-3.7156491,40.383106],[-3.7156682,40.38311],[-3.7156906,40.383118],[-3.7157047,40.38312],[-3.7157142,40.38312],[-3.7157485,40.383133],[-3.7158215,40.38315],[-3.7158945,40.383163],[-3.7159338,40.38317],[-3.7160246,40.38319],[-3.7162998,40.383247],[-3.7167933,40.383354],[-3.7168157,40.383358],[-3.7168312,40.383358],[-3.7168403,40.383358],[-3.7168465,40.383358],[-3.7168605,40.383358],[-3.716876,40.383358],[-3.716887,40.383358],[-3.7168913,40.383358],[-3.7169054,40.383354],[-3.7169206,40.383354],[-3.716924,40.38335],[-3.7169347,40.38335],[-3.7169487,40.383347],[-3.7169628,40.38334],[-3.7169707,40.383335],[-3.716976,40.383335],[-3.7169888,40.383327],[-3.7170005,40.38332],[-3.7170122,40.383316],[-3.7170238,40.38331],[-3.7170343,40.383297],[-3.7170436,40.38329],[-3.7170517,40.38328],[-3.7170599,40.38327],[-3.7170682,40.383263],[-3.717074,40.38325],[-3.7170784,40.38324],[-3.717121,40.38314],[-3.717126,40.38313],[-3.7171416,40.38309],[-3.7171419,40.38309],[-3.717149,40.383095],[-3.7171774,40.3831],[-3.71719,40.383102],[-3.717262,40.383118],[-3.7172728,40.383118],[-3.7172832,40.38312],[-3.7172916,40.38312],[-3.717301,40.383125],[-3.7173104,40.383125],[-3.7173188,40.38313],[-3.717328,40.38313],[-3.7173376,40.383133],[-3.717347,40.383133],[-3.7173553,40.383137],[-3.7173645,40.383137],[-3.717374,40.38314],[-3.7173836,40.38314],[-3.717392,40.38314],[-3.7174299,40.38315],[-3.7177,40.383205],[-3.717778,40.38322],[-3.7178288,40.383232],[-3.7179813,40.38326],[-3.7179987,40.383263],[-3.7180078,40.383263],[-3.7180178,40.383266],[-3.7183902,40.38333],[-3.718418,40.383335],[-3.7184699,40.38316],[-3.7184746,40.383144],[-3.718534,40.382957],[-3.7185524,40.38289],[-3.7185526,40.382885],[-3.7185528,40.382885],[-3.718563,40.382847],[-3.7185688,40.382824],[-3.718577,40.382793],[-3.718614,40.38265],[-3.718616,40.38264],[-3.7186198,40.382626],[-3.7186227,40.382614],[-3.718628,40.38259],[-3.7186334,40.382572],[-3.7186346,40.38257],[-3.7186904,40.38235],[-3.7186913,40.382347],[-3.7187026,40.382313],[-3.7187045,40.382305],[-3.7187412,40.382175],[-3.718753,40.382133],[-3.7187586,40.382114],[-3.7187626,40.3821],[-3.7188158,40.381916],[-3.7188292,40.38188],[-3.7188413,40.381844],[-3.7188642,40.38178],[-3.7189682,40.38164],[-3.7189853,40.38161],[-3.7190166,40.38156],[-3.7190857,40.381367],[-3.7190895,40.381355],[-3.719108,40.381298],[-3.7191234,40.381252],[-3.719144,40.3812],[-3.7191472,40.381187],[-3.7191477,40.381187],[-3.7191544,40.38117],[-3.71916,40.381153],[-3.7191648,40.381134],[-3.719169,40.38112],[-3.7191718,40.3811],[-3.719174,40.38108],[-3.7191749,40.38106],[-3.719175,40.381046],[-3.7191682,40.380913],[-3.7191622,40.380817],[-3.7191558,40.38071],[-3.7191517,40.380592],[-3.7191496,40.380527],[-3.7191248,40.38053],[-3.7191231,40.38053],[-3.7191226,40.38052],[-3.7191224,40.380516],[-3.7191222,40.38051],[-3.719121,40.38048],[-3.7191205,40.38047],[-3.71912,40.380463],[-3.7191198,40.380455],[-3.7191193,40.380447],[-3.719119,40.38044],[-3.719119,40.380436],[-3.7191188,40.38043],[-3.7191188,40.380424],[-3.7191188,40.380417],[-3.7191188,40.3804],[-3.7191188,40.38037],[-3.7191193,40.380367],[-3.7190957,40.380363],[-3.719099,40.380344],[-3.7191052,40.380295],[-3.719077,40.380295],[-3.7190793,40.380276],[-3.719098,40.380123],[-3.719101,40.3801],[-3.7191088,40.380035],[-3.7191322,40.37985],[-3.7191324,40.379845],[-3.7191439,40.379753],[-3.7191641,40.37959],[-3.719184,40.37943],[-3.719195,40.37934],[-3.7191956,40.379337],[-3.7192104,40.379215],[-3.7192268,40.37908],[-3.7192273,40.379078],[-3.7232704,40.379208],[-3.7246428,40.38018],[-3.7249475,40.380394],[-3.724971,40.380413],[-3.7255638,40.380833],[-3.72579,40.381092],[-3.7258303,40.381123],[-3.7258327,40.38112],[-3.7258573,40.38104],[-3.7258956,40.381065],[-3.7259753,40.381123],[-3.726037,40.38117],[-3.7261925,40.38128],[-3.7262578,40.381325],[-3.7263706,40.381405],[-3.726437,40.381454],[-3.7264493,40.381462],[-3.7265487,40.381535],[-3.7266152,40.38158],[-3.7267315,40.381664],[-3.726764858133671,40.38174739533417]]]}}]}