{"type":"FeatureCollection","name":"ZBE Madrid","features":[{"type":"Feature","properties":{"name":"Madrid","calidad":"approx_outer_boundary_from_uploaded_citywide_points"},"geometry":{"type":"Polygon","coordinates":[[[-3.8889635,40.570858],[-3.8836868,40.585278],[-3.875903,40.590176],[-3.8738997,40.591152],[-3.8673768,40.592163],[-3.865967,40.59179],[-3.8487585,40.590958],[-3.8416915,40.59267],[-3.8327472,40.59366],[-3.8275504,40.594692],[-3.8249478,40.5946],[-3.8128257,40.608288],[-3.8096077,40.60987],[-3.806201,40.609512],[-3.80053,40.6059],[-3.7834835,40.60177],[-3.7782629,40.60173],[-3.7681692,40.59966],[-3.7408168,40.590645],[-3.729809,40.58509],[-3.7266715,40.584072],[-3.717252,40.582897],[-3.7130013,40.583294],[-3.7019587,40.586952],[-3.6908057,40.60083],[-3.6874173,40.606808],[-3.67531,40.615738],[-3.6657581,40.63377],[-3.6616743,40.639492],[-3.6584795,40.642056],[-3.6556928,40.64328],[-3.6522138,40.64266],[-3.638824,40.6384],[-3.637615,40.63769],[-3.636692,40.63678],[-3.630146,40.628284],[-3.6226008,40.61591],[-3.618011,40.611263],[-3.608743,40.598454],[-3.6052117,40.59646],[-3.6018505,40.592392],[-3.6019158,40.591],[-3.602224,40.59014],[-3.6064239,40.585117],[-3.6222322,40.57568],[-3.6250098,40.573616],[-3.6262872,40.57352],[-3.639727,40.575108],[-3.6503174,40.577423],[-3.6509461,40.57801],[-3.652727,40.581085],[-3.653294,40.58263],[-3.66906,40.591255],[-3.6802464,40.58587],[-3.6893966,40.57036],[-3.6879225,40.564953],[-3.6869688,40.56315],[-3.6849313,40.558094],[-3.6824083,40.553833],[-3.678618,40.546543],[-3.6720574,40.537373],[-3.6693237,40.534378],[-3.6628702,40.520035],[-3.648879,40.51076],[-3.6482072,40.51051],[-3.6313267,40.50845],[-3.6157696,40.51093],[-3.6142735,40.51072],[-3.6065128,40.5058],[-3.602578,40.5013],[-3.602408,40.4934],[-3.590851,40.479465],[-3.5882587,40.479267],[-3.582369,40.479626],[-3.5804272,40.479416],[-3.5782266,40.478416],[-3.5747766,40.475197],[-3.574328,40.47377],[-3.5746834,40.465942],[-3.5631235,40.452026],[-3.554425,40.452515],[-3.5443354,40.451435],[-3.534951,40.446346],[-3.534991,40.444958],[-3.535585,40.44471],[-3.5413551,40.443626],[-3.5452101,40.442616],[-3.5497286,40.442055],[-3.5541124,40.44081],[-3.5591042,40.438446],[-3.5610714,40.437958],[-3.562286,40.437943],[-3.5685482,40.43621],[-3.575254,40.425575],[-3.5636914,40.413513],[-3.55784,40.41286],[-3.5492837,40.412323],[-3.5448282,40.41146],[-3.5311904,40.420086],[-3.5251842,40.41634],[-3.5222452,40.41382],[-3.519181,40.408886],[-3.5181315,40.40196],[-3.5204067,40.3921],[-3.5268908,40.389793],[-3.529151,40.389385],[-3.546132,40.384575],[-3.5517972,40.368153],[-3.552801,40.36128],[-3.552907,40.35768],[-3.5532646,40.356136],[-3.5547285,40.35431],[-3.5621567,40.347095],[-3.5699463,40.33763],[-3.5718825,40.334614],[-3.5727377,40.33366],[-3.5752814,40.331863],[-3.5761263,40.314884],[-3.5779684,40.313892],[-3.5874355,40.31279],[-3.5982587,40.312065],[-3.6111507,40.314312],[-3.6274,40.31959],[-3.630366,40.320744],[-3.6329038,40.322304],[-3.6384835,40.326576],[-3.6414244,40.328312],[-3.6575136,40.328926],[-3.659912,40.32786],[-3.6695182,40.32505],[-3.6852922,40.32226],[-3.6930192,40.32011],[-3.7031248,40.32212],[-3.7125428,40.323494],[-3.724564,40.334576],[-3.7235625,40.343544],[-3.722418,40.35041],[-3.7354176,40.362396],[-3.757707,40.35726],[-3.7723536,40.359768],[-3.7877645,40.358696],[-3.7908175,40.359863],[-3.7998815,40.362675],[-3.8104675,40.363754],[-3.8191566,40.37678],[-3.8227775,40.380535],[-3.8290877,40.38861],[-3.8320937,40.392647],[-3.834162,40.396057],[-3.8206625,40.396618],[-3.8193102,40.396366],[-3.808414,40.392414],[-3.8042572,40.392056],[-3.8010478,40.392143],[-3.7937887,40.393635],[-3.788587,40.393974],[-3.7786117,40.408226],[-3.7791526,40.410534],[-3.7805657,40.414253],[-3.7813952,40.41757],[-3.7803557,40.4219],[-3.7791185,40.424274],[-3.7768528,40.42568],[-3.7786598,40.44385],[-3.787281,40.443336],[-3.7900903,40.44236],[-3.7911735,40.448063],[-3.7989752,40.459206],[-3.812894,40.463757],[-3.8151717,40.463802],[-3.8236175,40.464706],[-3.8343527,40.464417],[-3.8382568,40.467766],[-3.8381338,40.470924],[-3.8366678,40.480865],[-3.8362496,40.481712],[-3.839402,40.499386],[-3.8525429,40.50979],[-3.85351,40.51119],[-3.8540125,40.511997],[-3.8577287,40.52788],[-3.8630095,40.534664],[-3.8694446,40.547417],[-3.8826919,40.559875],[-3.8842108,40.560467],[-3.8849876,40.561028],[-3.8889635,40.570858]]]}}]}