{"type":"FeatureCollection","name":"ZBE Málaga","features":[{"type":"Feature","properties":{"name":"Málaga","calidad":"reviewed_from_uploaded_boundary_points"},"geometry":{"type":"Polygon","coordinates":[[[-4.435425049726699,36.715312783261986],[-4.4357963,36.715885],[-4.4358096,36.71594],[-4.435877,36.71587],[-4.4359403,36.715862],[-4.436016,36.715855],[-4.436078,36.715847],[-4.436119516481408,36.71583316117287],[-4.435855,36.716145],[-4.4358177,36.716156],[-4.4357758,36.71618],[-4.435747,36.716194],[-4.4357142,36.716213],[-4.4356837,36.716236],[-4.435665,36.71625],[-4.435644,36.716274],[-4.435619,36.7163],[-4.4355946,36.71633],[-4.435575,36.716366],[-4.4355607,36.716393],[-4.435545,36.716434],[-4.435535,36.71647],[-4.4355288,36.71651],[-4.435527,36.71654],[-4.435528,36.716568],[-4.4355326,36.716606],[-4.435537,36.716625],[-4.435549,36.716663],[-4.43556,36.716694],[-4.435578,36.71673],[-4.4356003,36.716763],[-4.435619,36.716785],[-4.4356427,36.716812],[-4.4356728,36.71684],[-4.4357033,36.716866],[-4.4357343,36.716885],[-4.4357696,36.716908],[-4.4358144,36.716927],[-4.4358664,36.716946],[-4.435915,36.71696],[-4.4359536,36.71697],[-4.435982,36.716972],[-4.435988,36.717075],[-4.435188,36.717106],[-4.4349246,36.717117],[-4.4348555,36.71795],[-4.4354672,36.71879],[-4.4345956,36.719208],[-4.4342575,36.71931],[-4.4350934,36.72018],[-4.4345226,36.720768],[-4.434392,36.720627],[-4.433311,36.72137],[-4.4324512,36.721386],[-4.432404,36.721355],[-4.4323187,36.72135],[-4.432069,36.721405],[-4.4320383,36.721375],[-4.4319854,36.721348],[-4.4319277,36.721348],[-4.43192,36.721394],[-4.4315586,36.721577],[-4.431473,36.721394],[-4.431591,36.721844],[-4.4315944,36.722202],[-4.4315906,36.722385],[-4.43158,36.722725],[-4.431544,36.722725],[-4.431546,36.72357],[-4.4315424,36.723774],[-4.4315376,36.7241],[-4.4314985,36.72421],[-4.431315,36.724426],[-4.4311686,36.724606],[-4.4309974,36.724854],[-4.430845,36.72526],[-4.4307446,36.725574],[-4.4306383,36.725887],[-4.430451,36.72647],[-4.430324,36.726505],[-4.4302163,36.72655],[-4.430116,36.726624],[-4.4300017,36.726738],[-4.4299445,36.726833],[-4.4295278,36.726814],[-4.4285555,36.726772],[-4.42851,36.727413],[-4.4284854,36.727417],[-4.427014571110564,36.72752987942442],[-4.4270515,36.72792],[-4.427048,36.728024],[-4.427045,36.72813],[-4.4256973,36.728085],[-4.4255805,36.729687],[-4.42524,36.729683],[-4.424657,36.729603],[-4.42453,36.729607],[-4.4240565,36.729645],[-4.423942,36.729652],[-4.423649,36.72968],[-4.423303,36.729713],[-4.423164,36.729805],[-4.423027,36.7293],[-4.422986,36.729153],[-4.422937,36.72902],[-4.4229116,36.72899],[-4.42274,36.729],[-4.4226637,36.72902],[-4.4226274,36.728996],[-4.421785,36.728935],[-4.421377,36.72889],[-4.4213076,36.728897],[-4.421242,36.72895],[-4.4212074,36.729008],[-4.421192,36.729103],[-4.4211693,36.72925],[-4.4212165,36.72927],[-4.4208755,36.729214],[-4.4208097,36.72924],[-4.420788,36.729267],[-4.420624,36.7294],[-4.4204774,36.729492],[-4.42015,36.729736],[-4.41987,36.729935],[-4.419566,36.730152],[-4.4194694,36.730263],[-4.419439,36.730236],[-4.4184103,36.731064],[-4.418225,36.731197],[-4.417631,36.731644],[-4.417382,36.731827],[-4.4173512,36.73186],[-4.415998,36.732986],[-4.4159665,36.733006],[-4.4159193,36.733006],[-4.415731,36.732964],[-4.4157023,36.732944],[-4.415481,36.73304],[-4.415542,36.73332],[-4.415522,36.733345],[-4.4151306,36.73344],[-4.4147487,36.733536],[-4.414562,36.73358],[-4.414426,36.733616],[-4.4142942,36.73365],[-4.414045,36.733715],[-4.414048,36.73375],[-4.4138308,36.73384],[-4.4136667,36.733868],[-4.4132876,36.73262],[-4.413193,36.732334],[-4.4132133,36.732075],[-4.4132423,36.731712],[-4.413322,36.731583],[-4.413407,36.731133],[-4.413483,36.73081],[-4.4135127,36.730633],[-4.4134526,36.73004],[-4.411896,36.72943],[-4.4125915,36.72846],[-4.4126925,36.728317],[-4.412841,36.728104],[-4.413122,36.72772],[-4.412957793108265,36.72711721520756],[-4.412487,36.727123],[-4.4122715,36.727165],[-4.4115987,36.727234],[-4.4111824,36.72722],[-4.4110646,36.727215],[-4.4108715,36.72721],[-4.410869,36.7272],[-4.4105196,36.72718],[-4.4105124,36.72719],[-4.4100437,36.72716],[-4.4095054,36.727127],[-4.409012,36.727127],[-4.4087152,36.72713],[-4.408707,36.727116],[-4.408488,36.72712],[-4.408295,36.72712],[-4.408291,36.727127],[-4.4078197,36.727127],[-4.407453,36.7272],[-4.4069114,36.727306],[-4.406899,36.72729],[-4.4066806,36.72732],[-4.406613,36.72733],[-4.4065447,36.72732],[-4.4062777,36.727264],[-4.406161,36.72722],[-4.4060283,36.72717],[-4.4058595,36.72705],[-4.4058285,36.727005],[-4.4057283,36.726788],[-4.4056683,36.726658],[-4.405591,36.726513],[-4.4055285,36.726456],[-4.405492,36.726418],[-4.4054923,36.726414],[-4.4052935,36.726276],[-4.405055,36.726112],[-4.405012,36.72607],[-4.404974,36.726017],[-4.4049616,36.725994],[-4.404926,36.725918],[-4.404888,36.72585],[-4.4049,36.725777],[-4.40475,36.725674],[-4.404714,36.725647],[-4.404534,36.725567],[-4.404466,36.72554],[-4.404349,36.725502],[-4.4042706,36.725483],[-4.4040065,36.72545],[-4.4036117,36.725433],[-4.4035397,36.725426],[-4.4034605,36.72543],[-4.4032416,36.72541],[-4.4031906,36.7254],[-4.4030523,36.725357],[-4.4027486,36.72524],[-4.4023175,36.725075],[-4.4020495,36.72498],[-4.4019866,36.724957],[-4.401912,36.724953],[-4.4018273,36.72495],[-4.401656,36.724968],[-4.401623,36.724976],[-4.4016113,36.724968],[-4.4015946,36.724957],[-4.4015756,36.724957],[-4.401396,36.724987],[-4.4010572,36.72509],[-4.4009457,36.725075],[-4.40057,36.72497],[-4.400408,36.724907],[-4.400225,36.724773],[-4.4002085,36.724754],[-4.4001694,36.724686],[-4.4001102,36.724606],[-4.4000235,36.72447],[-4.4000044,36.72446],[-4.3995147,36.723698],[-4.39948,36.723637],[-4.3994617,36.723602],[-4.399451,36.723564],[-4.3994455,36.72353],[-4.3994436,36.72349],[-4.399449,36.723457],[-4.399511,36.7232],[-4.3995533,36.723038],[-4.3995743,36.722935],[-4.3996143,36.72279],[-4.3996162,36.722748],[-4.399681,36.722515],[-4.3996334,36.722385],[-4.3996453,36.722343],[-4.39953,36.722023],[-4.399458,36.72184],[-4.399196,36.721333],[-4.4000144,36.721085],[-4.4008327,36.72084],[-4.4016647,36.720364],[-4.402255,36.720024],[-4.4028454,36.719685],[-4.4031215,36.719604],[-4.4033976,36.719524],[-4.403839,36.71953],[-4.4041796,36.719532],[-4.40452,36.719536],[-4.4051514,36.719475],[-4.4057827,36.719414],[-4.4072075,36.718796],[-4.4080563,36.718426],[-4.4101195,36.716763],[-4.4121246,36.715145],[-4.413243368312467,36.71586323156221],[-4.412569,36.71764],[-4.4124155,36.718567],[-4.4122615,36.71949],[-4.412793,36.71943],[-4.416162,36.718468],[-4.4195313,36.717506],[-4.4199157,36.7171],[-4.4203,36.716686],[-4.4203563,36.716427],[-4.420623,36.716244],[-4.42257,36.7143],[-4.424517,36.712353],[-4.4259844,36.71089],[-4.4276676,36.709778],[-4.427451,36.70943],[-4.429194,36.710953],[-4.429754,36.71141],[-4.430179,36.711735],[-4.4304066,36.712105],[-4.4308405,36.7127],[-4.4312024,36.713158],[-4.4318876,36.713886],[-4.4318953,36.71395],[-4.431878,36.71401],[-4.4318914,36.7141],[-4.43194,36.71418],[-4.431983,36.714233],[-4.432073,36.71427],[-4.4321747,36.71429],[-4.432287,36.714287],[-4.432406,36.71425],[-4.4340086,36.714813],[-4.435425049726699,36.715312783261986]]]}}]}