{"type":"FeatureCollection","name":"ZBE Zona de Baixas Emisións","features":[{"type":"Feature","properties":{"name":"Zona de Baixas Emisións","fuente":"OpenStreetMap · way/1494977124"},"geometry":{"type":"Polygon","coordinates":[[[-7.8664088,42.3399105],[-7.8664871,42.3394847],[-7.8660556,42.3386256],[-7.8658983,42.3381463],[-7.865879,42.334577],[-7.8658818,42.3338855],[-7.8657742,42.332754],[-7.8653589,42.3319203],[-7.8647726,42.3306016],[-7.8646484,42.330575],[-7.8619196,42.3308239],[-7.861754,42.3317092],[-7.8611829,42.3334388],[-7.8611332,42.3351522],[-7.8610008,42.3375181],[-7.8605896,42.3381177],[-7.8589176,42.3397514],[-7.8588431,42.3399227],[-7.8588513,42.3400634],[-7.8593894,42.3406202],[-7.8624521,42.3423068],[-7.8636145,42.3425199],[-7.8643965,42.34161],[-7.8644874,42.3413154],[-7.8651933,42.3415981],[-7.8664088,42.3399105]]]}}]}