{"type":"FeatureCollection","name":"ZBE palencia","features":[{"type":"Feature","properties":{"name":"ZBE Palencia · Casco Histórico","fuente":"Trazado a partir de imagen · calidad: alta - plano turístico oficial con calles"},"geometry":{"type":"Polygon","coordinates":[[[-4.5325,42.0125],[-4.531,42.014],[-4.529,42.0148],[-4.526,42.0152],[-4.523,42.015],[-4.5205,42.0145],[-4.518,42.0135],[-4.517,42.0115],[-4.5165,42.009],[-4.517,42.007],[-4.518,42.005],[-4.5205,42.004],[-4.5235,42.0042],[-4.5265,42.0045],[-4.529,42.0055],[-4.531,42.007],[-4.532,42.009],[-4.5325,42.011],[-4.5325,42.0125]]]}}]}