{"type":"FeatureCollection","name":"ZBE Palma (Mallorca)","features":[{"type":"Feature","properties":{"name":"Palma (Mallorca)","calidad":"approx_from_boundary_points"},"geometry":{"type":"Polygon","coordinates":[[[2.641423,39.569427],[2.641514,39.569584],[2.6415946,39.56969],[2.6417663,39.569862],[2.6418414,39.57016],[2.641938,39.57054],[2.641938,39.57064],[2.641836,39.5708],[2.6418762,39.571045],[2.6419218,39.571278],[2.6420343,39.571247],[2.642249,39.572235],[2.6424098,39.57297],[2.6427855,39.57322],[2.643955,39.573914],[2.6440835,39.57404],[2.6441696,39.574272],[2.644217,39.57438],[2.6442647,39.57449],[2.6444283,39.574936],[2.64471,39.575703],[2.6447072,39.57603],[2.644702,39.57612],[2.6458848,39.57617],[2.646507,39.576206],[2.646676,39.576244],[2.6468008,39.576317],[2.6470006,39.576523],[2.6479743,39.577454],[2.6489048,39.578358],[2.649023,39.57838],[2.649157,39.578373],[2.6492913,39.578335],[2.6495595,39.578243],[2.6501682,39.57805],[2.6525877,39.57724],[2.6527479,39.57716],[2.6530101,39.576782],[2.6533787,39.57619],[2.6535532,39.57598],[2.6543095,39.575333],[2.6552055,39.574894],[2.6553342,39.574818],[2.6554093,39.574623],[2.6555972,39.57359],[2.6556587,39.57347],[2.6561925,39.573044],[2.656454,39.57285],[2.656694,39.572624],[2.6566403,39.572487],[2.6565492,39.571396],[2.6565762,39.57133],[2.656934,39.570747],[2.6570883,39.570477],[2.65722,39.5702],[2.6572318,39.57014],[2.657205,39.570026],[2.6569414,39.569485],[2.6567008,39.56894],[2.6572359,39.567482],[2.6565921,39.566822],[2.6565332,39.566612],[2.6564634,39.566177],[2.6557286,39.566257],[2.6554494,39.565495],[2.6546557,39.565372],[2.6546557,39.565643],[2.6538296,39.56553],[2.6531644,39.565662],[2.652982,39.56558],[2.652939,39.565456],[2.6527672,39.565357],[2.652392,39.565315],[2.6518126,39.565132],[2.651544,39.565166],[2.6514263,39.56543],[2.6514585,39.565662],[2.649495,39.566372],[2.6489158,39.566795],[2.6488085,39.56696],[2.647875,39.567165],[2.647328,39.567398],[2.6477785,39.568317],[2.6469417,39.56872],[2.6464748,39.568634],[2.6463032,39.56826],[2.646062,39.56791],[2.6457293,39.56726],[2.6456573,39.56718],[2.6451888,39.566936],[2.6450438,39.56709],[2.6448722,39.56731],[2.644132,39.568024],[2.6431985,39.568623],[2.642721,39.568943],[2.6423025,39.56917],[2.6418736,39.569313],[2.641632,39.569366],[2.641423,39.569427]]]}}]}