{"type":"FeatureCollection","name":"ZBE Pamplona","features":[{"type":"Feature","properties":{"name":"Pamplona","calidad":"approx_from_boundary_points"},"geometry":{"type":"Polygon","coordinates":[[[-1.6462662,42.81467],[-1.6433846,42.815712],[-1.6433203,42.815777],[-1.6425887,42.816242],[-1.6425245,42.81626],[-1.64248,42.81609],[-1.6424074,42.816105],[-1.6422929,42.81614],[-1.6421428,42.81599],[-1.64203,42.816017],[-1.6418352,42.8161],[-1.6413863,42.816048],[-1.6412543,42.816097],[-1.6410693,42.816067],[-1.6409979,42.816017],[-1.6401215,42.816616],[-1.6400545,42.816566],[-1.6398569,42.816708],[-1.6398171,42.816647],[-1.6392423,42.81692],[-1.6391982,42.81686],[-1.6389757,42.816967],[-1.6388986,42.81702],[-1.6383392,42.81729],[-1.6379973,42.817505],[-1.6362088,42.81794],[-1.6357291,42.816917],[-1.6333247,42.81542],[-1.6324656,42.815006],[-1.6320943,42.814293],[-1.6320511,42.814064],[-1.6316895,42.81383],[-1.6292706,42.81164],[-1.6292444,42.811577],[-1.6292381,42.81148],[-1.6292422,42.811443],[-1.6292562,42.811386],[-1.629277,42.811333],[-1.6293069,42.81128],[-1.6293516,42.81122],[-1.6294196,42.811153],[-1.6303655,42.810318],[-1.6303972,42.8103],[-1.6309513,42.810238],[-1.63097,42.80987],[-1.6312543,42.809597],[-1.631581,42.80935],[-1.6318691,42.809147],[-1.6327041,42.808674],[-1.6328198,42.808693],[-1.6328835,42.808693],[-1.6329539,42.80869],[-1.6330166,42.808674],[-1.6330864,42.808647],[-1.6331277,42.808624],[-1.6331702,42.808598],[-1.6333177,42.808353],[-1.6333147,42.8083],[-1.6350919,42.807194],[-1.635405,42.807068],[-1.6355805,42.807117],[-1.6357894,42.807472],[-1.6359931,42.807537],[-1.636471,42.807568],[-1.6380476,42.807617],[-1.6390288,42.807655],[-1.6391228,42.807682],[-1.6392707,42.807793],[-1.6392695,42.807842],[-1.6393486,42.809345],[-1.6399106,42.809334],[-1.6399088,42.8093],[-1.6415523,42.808804],[-1.6412803,42.80892],[-1.6415676,42.809395],[-1.6416134,42.809338],[-1.6420819,42.80943],[-1.6433051,42.80947],[-1.6433522,42.80947],[-1.6433927,42.809467],[-1.643446,42.809464],[-1.6434951,42.80946],[-1.6435446,42.809456],[-1.6436003,42.80946],[-1.6436234,42.809456],[-1.6436704,42.80943],[-1.6436572,42.809444],[-1.6436445,42.809452],[-1.6437347,42.809605],[-1.64372,42.809795],[-1.6440269,42.810116],[-1.6444058,42.810406],[-1.6448497,42.811234],[-1.6452622,42.812237],[-1.6451066,42.812286],[-1.645039,42.812336],[-1.6449795,42.812397],[-1.644945,42.81245],[-1.6449361,42.812492],[-1.6450077,42.812756],[-1.6453134,42.812725],[-1.6457697,42.812866],[-1.6459389,42.81322],[-1.6461629,42.81387],[-1.6460801,42.813892],[-1.646094,42.81402],[-1.6460762,42.814133],[-1.6462662,42.81467]]]}}]}