{"type":"FeatureCollection","name":"ZBE Zona de Bajas Emisiones 1","features":[{"type":"Feature","properties":{"name":"Zona de Bajas Emisiones 1","fuente":"OpenStreetMap · way/1371626021"},"geometry":{"type":"Polygon","coordinates":[[[-5.6644657,40.969738],[-5.6645247,40.9694869],[-5.6646824,40.9690593],[-5.6648321,40.9686463],[-5.6638334,40.9684948],[-5.6640091,40.967634],[-5.6641061,40.9672699],[-5.6647236,40.9673648],[-5.6649303,40.9668709],[-5.6651121,40.9667942],[-5.6653817,40.966739],[-5.665548,40.9668],[-5.6666618,40.967178],[-5.6668344,40.9671676],[-5.6670038,40.9669582],[-5.6673089,40.9670966],[-5.6675828,40.9672758],[-5.6677211,40.967083],[-5.6678223,40.9664014],[-5.6679272,40.9663424],[-5.6688875,40.9658815],[-5.6689954,40.965804],[-5.6697986,40.9651627],[-5.6693252,40.9647759],[-5.6685228,40.9642307],[-5.6684025,40.9641257],[-5.6684709,40.9639931],[-5.6686075,40.9636991],[-5.6689242,40.9632447],[-5.6689539,40.9631174],[-5.6689597,40.9630967],[-5.6690623,40.9630674],[-5.6690317,40.9626761],[-5.6690552,40.9626041],[-5.6695014,40.9622756],[-5.6695163,40.9621588],[-5.6693834,40.9618117],[-5.6691924,40.9616215],[-5.6702703,40.9609337],[-5.6711445,40.9611277],[-5.6717516,40.9598987],[-5.6705093,40.9596095],[-5.669698,40.9594348],[-5.6679312,40.9593023],[-5.6667845,40.9591429],[-5.6655662,40.9591475],[-5.6649334,40.9591405],[-5.6647349,40.9591793],[-5.6645855,40.9593768],[-5.6643388,40.9600029],[-5.6642888,40.9602392],[-5.6643011,40.9620502],[-5.6640768,40.9620383],[-5.6638476,40.9620146],[-5.6633437,40.9627197],[-5.6632446,40.9627287],[-5.6631101,40.9629629],[-5.6623227,40.9623683],[-5.6618894,40.9631933],[-5.661178,40.9643265],[-5.6599464,40.9662765],[-5.6592332,40.9674315],[-5.6588437,40.968037],[-5.658766,40.9681504],[-5.6587744,40.9681731],[-5.6589797,40.9683474],[-5.6597737,40.9688285],[-5.6602868,40.9691394],[-5.6606628,40.9692821],[-5.6616751,40.9695415],[-5.6628704,40.96985],[-5.6631461,40.969903],[-5.6633176,40.9698347],[-5.6636225,40.9698301],[-5.6644657,40.969738]]]}}]}