{"type":"FeatureCollection","name":"ZBE San Sebastián","features":[{"type":"Feature","properties":{"name":"San Sebastián","calidad":"approx_from_boundary_points"},"geometry":{"type":"Polygon","coordinates":[[[-1.99341765745203,43.32405084989391],[-1.992508737504079,43.3236404857881],[-1.9939603,43.324566],[-1.9940069,43.324677],[-1.9934126,43.324883],[-1.9929882,43.325138],[-1.9927968,43.3253],[-1.9928,43.325394],[-1.9925722,43.325684],[-1.9923235,43.325882],[-1.992132,43.32594],[-1.9919558,43.326027],[-1.9920187,43.32623],[-1.9918884,43.326427],[-1.9918574,43.326557],[-1.9918263,43.32676],[-1.9916347,43.326645],[-1.9915311,43.326733],[-1.9913032,43.326878],[-1.9911011,43.32706],[-1.99092,43.327164],[-1.9908215,43.32712],[-1.9905211,43.327198],[-1.9903969,43.327118],[-1.9902375,43.327106],[-1.9900808,43.32719],[-1.989777,43.32719],[-1.9895577,43.327286],[-1.9893454,43.327442],[-1.9890554,43.327484],[-1.9887964,43.327484],[-1.9886721,43.32738],[-1.9883976,43.327354],[-1.9882267,43.327293],[-1.9883457,43.32721],[-1.9882629,43.327137],[-1.9878693,43.32698],[-1.9871286,43.326786],[-1.9865342,43.326607],[-1.9861547,43.326527],[-1.9857509,43.326508],[-1.9850621,43.326283],[-1.9840451,43.326004],[-1.9836584,43.325916],[-1.9832572,43.32576],[-1.9824517,43.325523],[-1.9821824,43.325417],[-1.9821305,43.325333],[-1.9818094,43.32504],[-1.9813225,43.32436],[-1.9807736,43.323578],[-1.9805948,43.32324],[-1.9789116,43.32085],[-1.9789711,43.320827],[-1.9791006,43.320694],[-1.9789562,43.320137],[-1.9788936,43.319874],[-1.9790854,43.31824],[-1.9791949,43.31733],[-1.9793209,43.316357],[-1.9795564,43.31417],[-1.9796134,43.313614],[-1.9796963,43.312675],[-1.9794683,43.311485],[-1.979597,43.311466],[-1.9798652,43.311443],[-1.9801306,43.311424],[-1.9802153,43.311543],[-1.9802663,43.311665],[-1.9802797,43.311806],[-1.9802663,43.31202],[-1.9802958,43.31215],[-1.9803762,43.312218],[-1.9805318,43.312313],[-1.9811085,43.311768],[-1.9812456,43.311268],[-1.9813607,43.31073],[-1.9816021,43.310715],[-1.9816498,43.31066],[-1.9816685,43.31063],[-1.9816982,43.31061],[-1.9817346,43.310608],[-1.9817576,43.310616],[-1.9817822,43.31063],[-1.9819534,43.31078],[-1.9819427,43.31132],[-1.9820392,43.311813],[-1.9820178,43.311825],[-1.9820688,43.311962],[-1.9821117,43.312008],[-1.9821546,43.311966],[-1.9822619,43.31195],[-1.9824255,43.311977],[-1.9826093,43.31176],[-1.9828627,43.31159],[-1.9832194,43.311596],[-1.9832449,43.311394],[-1.9831495,43.31114],[-1.9829615,43.310673],[-1.9829718,43.310604],[-1.9829983,43.310547],[-1.9830246,43.31049],[-1.9831141,43.310417],[-1.9832072,43.31038],[-1.9833399,43.310345],[-1.9834981,43.310375],[-1.9836476,43.310444],[-1.9841206,43.31072],[-1.9842253,43.31075],[-1.9843405,43.310745],[-1.9843895,43.310734],[-1.9845843,43.310665],[-1.9847664,43.31064],[-1.9849321,43.31066],[-1.9850749,43.31072],[-1.9851345,43.310753],[-1.9852391,43.31086],[-1.9852831,43.31094],[-1.9853022,43.311096],[-1.9853464,43.311214],[-1.9861913,43.31107],[-1.9863963,43.311176],[-1.9866285,43.311275],[-1.9866987,43.311512],[-1.9869558,43.31147],[-1.9873903,43.31139],[-1.9874707,43.311375],[-1.9875377,43.31135],[-1.9875801,43.311348],[-1.9876169,43.311348],[-1.9878093,43.31138],[-1.9879766,43.311447],[-1.9879553,43.311325],[-1.9879558,43.311153],[-1.9879836,43.310875],[-1.9885741,43.310993],[-1.9885818,43.311047],[-1.9887046,43.311203],[-1.9888091,43.311287],[-1.9888359,43.31134],[-1.9888302,43.311356],[-1.9887382,43.31156],[-1.9886804,43.311638],[-1.9886929,43.311672],[-1.9887288,43.31178],[-1.9887532,43.31212],[-1.9887563,43.3124],[-1.9887116,43.312622],[-1.9886879,43.3128],[-1.988643,43.313023],[-1.988553,43.3134],[-1.9883472,43.31359],[-1.9884554,43.313526],[-1.9886173,43.31373],[-1.9889444,43.313774],[-1.9892716,43.313725],[-1.9896364,43.313667],[-1.9899825,43.313538],[-1.9901059,43.31357],[-1.9904116,43.313698],[-1.9905967,43.313854],[-1.9907737,43.314228],[-1.9908783,43.31453],[-1.9910419,43.31484],[-1.9905618,43.31498],[-1.9904224,43.31508],[-1.9902614,43.315002],[-1.9900469,43.315033],[-1.9899718,43.315113],[-1.989961,43.31525],[-1.9899396,43.315323],[-1.989843,43.3153],[-1.9893817,43.315407],[-1.9893924,43.31551],[-1.9892958,43.315563],[-1.9891564,43.31551],[-1.9887916,43.31568],[-1.9888345,43.315758],[-1.9887165,43.315838],[-1.9885019,43.315727],[-1.9872037,43.316673],[-1.9871501,43.316616],[-1.986281,43.31739],[-1.9856051,43.3181],[-1.985176,43.31874],[-1.9850258,43.319695],[-1.9851116,43.32021],[-1.9853262,43.320374],[-1.9861523,43.32084],[-1.9862489,43.321022],[-1.9864205,43.32131],[-1.9866458,43.321636],[-1.9868014,43.321724],[-1.987193,43.322083],[-1.9873539,43.321846],[-1.9874421,43.321987],[-1.9881887,43.322613],[-1.988223,43.32276],[-1.9875629,43.322853],[-1.9878443,43.32291],[-1.9881345,43.323414],[-1.9882051,43.323517],[-1.9885147,43.323406],[-1.9885662,43.323338],[-1.988856,43.32324],[-1.9889939,43.322693],[-1.9890442,43.32258],[-1.9890863,43.322464],[-1.9891242,43.32236],[-1.9893504,43.322422],[-1.9893066,43.322502],[-1.9892654,43.322613],[-1.9892274,43.322716],[-1.9892744,43.32286],[-1.989203,43.323112],[-1.9894259,43.323063],[-1.9894501,43.32309],[-1.989609,43.323036],[-1.9895831,43.322887],[-1.9895899,43.3228],[-1.9896375,43.32281],[-1.9896392,43.32283],[-1.9896388,43.322876],[-1.9900361,43.32297],[-1.9904269,43.322918],[-1.9906503,43.322876],[-1.990679938953025,43.322814809903434],[-1.98998677943437,43.322501858485985],[-1.9901996,43.322426],[-1.9901507,43.32241],[-1.9901434,43.322388],[-1.9901488,43.322353],[-1.9901744,43.322327],[-1.9902661,43.32235],[-1.9905322,43.32239],[-1.9905661,43.322506],[-1.990829280215294,43.322632011874965],[-1.9909042,43.322453],[-1.9909083,43.322563],[-1.9910983,43.32259],[-1.9912871,43.322624],[-1.9914094,43.322525],[-1.9918708,43.322666],[-1.9919722,43.32273],[-1.992194,43.322815],[-1.9924996,43.32287],[-1.992686,43.322998],[-1.9933853,43.32337],[-1.9932714,43.323505],[-1.9931678,43.323387],[-1.9930279,43.323193],[-1.9929813,43.323353],[-1.9930279,43.323586],[-1.9930509,43.323696],[-1.9933064,43.323944],[-1.99341765745203,43.32405084989391]]]}}]}