{"type":"FeatureCollection","name":"ZBE Zona de Bajas Emisiones de Santander","features":[{"type":"Feature","properties":{"name":"Zona de Bajas Emisiones de Santander","fuente":"OpenStreetMap · relation/20019840"},"geometry":{"type":"Polygon","coordinates":[[[-3.8038124,43.4638053],[-3.8038438,43.4637696],[-3.8038841,43.4637547],[-3.8039375,43.4637467],[-3.8039885,43.4637563],[-3.80402,43.4637736],[-3.8040401,43.4637944],[-3.8040523,43.4638318],[-3.8040425,43.4638797],[-3.8041944,43.463871],[-3.8048475,43.4638126],[-3.8054135,43.4637565],[-3.80548,43.4637464],[-3.8061423,43.4636863],[-3.8062102,43.463682],[-3.8062045,43.4636388],[-3.8062043,43.4636134],[-3.8062097,43.4633781],[-3.806212,43.4633216],[-3.8059731,43.4632321],[-3.8056328,43.4631115],[-3.8055794,43.4630908],[-3.8055483,43.4630648],[-3.8054963,43.4630179],[-3.8054662,43.4629688],[-3.8054164,43.4628763],[-3.8055967,43.462867],[-3.8060359,43.4628469],[-3.8066095,43.4628151],[-3.8074229,43.4627867],[-3.8074845,43.4627825],[-3.8075236,43.4627803],[-3.8082272,43.4627304],[-3.8084544,43.4627214],[-3.8084532,43.4626121],[-3.8084527,43.462506],[-3.8084404,43.4621347],[-3.8084342,43.461838],[-3.8084258,43.4615226],[-3.8084253,43.4614461],[-3.8077877,43.4614956],[-3.8075557,43.4615181],[-3.8073496,43.4615348],[-3.8069888,43.4615632],[-3.806399,43.4616097],[-3.806148,43.4616188],[-3.8058748,43.4616305],[-3.8055522,43.461657],[-3.8051148,43.4616971],[-3.8046851,43.4617409],[-3.8042974,43.461777],[-3.8038935,43.4618148],[-3.8034364,43.4618589],[-3.8029017,43.4619103],[-3.8027198,43.4619297],[-3.802604,43.461941],[-3.8024913,43.4619473],[-3.8023753,43.4619508],[-3.8023434,43.4619582],[-3.8023054,43.4619623],[-3.802267,43.4619615],[-3.8022293,43.461956],[-3.8020947,43.4619595],[-3.8020167,43.4619641],[-3.8019469,43.4619692],[-3.8018237,43.4619818],[-3.8017926,43.461985],[-3.8016706,43.4619964],[-3.8016606,43.4619973],[-3.801141,43.4620442],[-3.8009157,43.4620672],[-3.8006102,43.4620976],[-3.8001086,43.4621435],[-3.7998726,43.4621662],[-3.7994522,43.4622057],[-3.7991864,43.4622322],[-3.7984288,43.4623085],[-3.7982236,43.4623294],[-3.7980756,43.462343],[-3.7978097,43.4623673],[-3.7974927,43.4623984],[-3.7974109,43.4624092],[-3.7972822,43.4624345],[-3.7971883,43.4624598],[-3.7970628,43.4625055],[-3.7970166,43.4625319],[-3.7969442,43.4625766],[-3.7968825,43.4626253],[-3.7968343,43.4626759],[-3.7967913,43.4627304],[-3.7967538,43.4628005],[-3.7967253,43.4628551],[-3.7967035,43.4628972],[-3.7967089,43.4629128],[-3.7967214,43.4629467],[-3.7967084,43.4630102],[-3.7966593,43.4630637],[-3.796625,43.4630835],[-3.7966131,43.4631519],[-3.7966085,43.4632277],[-3.796616,43.4633042],[-3.7966328,43.4634262],[-3.7966389,43.4634708],[-3.7966697,43.4636462],[-3.7967266,43.4638736],[-3.7967496,43.4639902],[-3.7967633,43.4640591],[-3.7967876,43.4641875],[-3.796821,43.4643641],[-3.7968729,43.464701],[-3.7969267,43.464989],[-3.7969421,43.4651529],[-3.7969257,43.4652764],[-3.7969346,43.4652964],[-3.7970059,43.4652958],[-3.7971822,43.465352],[-3.7974095,43.4653483],[-3.797694,43.4653309],[-3.7982253,43.4653075],[-3.7982899,43.4653044],[-3.7984362,43.4653135],[-3.7984613,43.4653054],[-3.7984887,43.4653042],[-3.798515,43.4653099],[-3.7985369,43.4653219],[-3.798662,43.4652924],[-3.7990631,43.4648939],[-3.7991793,43.4647867],[-3.7992311,43.4646679],[-3.799234,43.4643849],[-3.7995468,43.464358],[-3.799844,43.4643386],[-3.7999287,43.4643361],[-3.8005992,43.4642913],[-3.8006678,43.4642847],[-3.8007124,43.4642863],[-3.8009228,43.4642932],[-3.8009676,43.4642968],[-3.8011218,43.4643091],[-3.8012351,43.4643182],[-3.8017298,43.4642709],[-3.8018214,43.4642567],[-3.8024287,43.464171],[-3.8026467,43.4641477],[-3.8027618,43.4641372],[-3.8029839,43.4641223],[-3.8030913,43.464106],[-3.803188,43.4640914],[-3.8036176,43.4639891],[-3.80369,43.4639311],[-3.8037313,43.4638938],[-3.8038007,43.4638317],[-3.8038124,43.4638053]]]}}]}