{"type":"FeatureCollection","name":"ZBE segovia","features":[{"type":"Feature","properties":{"name":"ZBE Segovia · Recinto Amurallado","fuente":"Trazado a partir de imagen · calidad: alta - Visor MITECO oficial"},"geometry":{"type":"Polygon","coordinates":[[[-4.128,40.9505],[-4.128,40.9515],[-4.127,40.9525],[-4.1255,40.953],[-4.123,40.9533],[-4.1205,40.953],[-4.118,40.9523],[-4.116,40.951],[-4.1148,40.9495],[-4.1148,40.9483],[-4.1158,40.9475],[-4.1178,40.9472],[-4.1205,40.9472],[-4.123,40.9475],[-4.1255,40.948],[-4.1275,40.9492],[-4.128,40.9505]]]}}]}