{"type":"FeatureCollection","name":"ZBE Sevilla","features":[{"type":"Feature","properties":{"name":"Sevilla","calidad":"approx_convex_hull_from_sparse_points"},"geometry":{"type":"Polygon","coordinates":[[[-6.007982,37.395374],[-6.012108,37.396034],[-6.012225,37.396305],[-6.011186,37.400425],[-6.008111,37.41186],[-6.0079684,37.411976],[-6.0078225,37.412083],[-6.007673,37.412186],[-6.0075197,37.41228],[-6.0073633,37.412373],[-6.0072036,37.41246],[-6.007041,37.41254],[-6.0068755,37.412613],[-6.0067077,37.41268],[-6.006538,37.412746],[-6.0063653,37.412804],[-6.0061913,37.412853],[-6.006016,37.4129],[-6.0058384,37.412937],[-6.00566,37.412968],[-6.0054803,37.412994],[-6.0049577,37.413055],[-5.9997535,37.411747],[-5.996286,37.40901],[-5.996256,37.408985],[-5.99623,37.408955],[-5.996209,37.40892],[-5.996194,37.408886],[-5.996185,37.408844],[-5.996182,37.408806],[-5.9961853,37.408764],[-5.9961944,37.408726],[-5.99621,37.408688],[-5.996231,37.408653],[-5.998711,37.40576],[-6.007982,37.395374]]]}}]}