{"type":"FeatureCollection","name":"ZBE sta-cruz-tenerife","features":[{"type":"Feature","properties":{"name":"ZBE Santa Cruz de Tenerife · Centro","fuente":"Trazado a partir de imagen · calidad: media - plano oficial ordenanza"},"geometry":{"type":"Polygon","coordinates":[[[-16.2585,28.4655],[-16.2565,28.467],[-16.253,28.4682],[-16.251,28.468],[-16.2495,28.4665],[-16.2485,28.464],[-16.2485,28.4615],[-16.249,28.4595],[-16.251,28.4583],[-16.254,28.4583],[-16.257,28.4595],[-16.259,28.4615],[-16.2595,28.4635],[-16.2585,28.4655]]]}}]}