{"type":"FeatureCollection","name":"ZBE Zona de Baixes Emissions de Tarragona","features":[{"type":"Feature","properties":{"name":"Zona de Baixes Emissions de Tarragona","fuente":"OpenStreetMap · relation/15051470"},"geometry":{"type":"Polygon","coordinates":[[[1.242657,41.1112859],[1.2426381,41.1112093],[1.2425867,41.1110012],[1.2425634,41.1108815],[1.2425531,41.1108284],[1.2447857,41.1104653],[1.2477683,41.109948],[1.2496834,41.109663],[1.2510589,41.1098666],[1.2523889,41.1112057],[1.2525989,41.1113243],[1.2525167,41.1113255],[1.2524446,41.1113325],[1.2523151,41.1113594],[1.2524448,41.1117786],[1.2524767,41.1118818],[1.2526187,41.1118565],[1.2528126,41.111822],[1.2530053,41.1117855],[1.2530479,41.1117754],[1.2530869,41.1117586],[1.2530999,41.1117473],[1.2531638,41.1116918],[1.2533687,41.111823],[1.2534651,41.1118865],[1.2535299,41.111924],[1.2536018,41.1119602],[1.2541632,41.1122428],[1.2543482,41.1122994],[1.2543718,41.112302],[1.2543937,41.1123089],[1.2544127,41.1123197],[1.2545279,41.1123344],[1.2545615,41.1123387],[1.254722,41.1123741],[1.2548011,41.1123919],[1.2548889,41.1124242],[1.2549611,41.112461],[1.2551495,41.1125609],[1.2553678,41.1126771],[1.2557247,41.112871],[1.2560866,41.1130636],[1.2563177,41.1131844],[1.2565842,41.1133205],[1.2567668,41.1134294],[1.2569173,41.1134993],[1.2570202,41.1135402],[1.2571252,41.1135765],[1.2572719,41.1136132],[1.2574,41.1136348],[1.2575098,41.1136539],[1.2575894,41.1136788],[1.2580258,41.113862],[1.2580768,41.1138876],[1.2581097,41.1139107],[1.2581363,41.1139385],[1.258151,41.1139597],[1.258161,41.1139824],[1.2581636,41.1140086],[1.2581632,41.1140472],[1.258151,41.1140843],[1.2581313,41.1141153],[1.258103,41.1141444],[1.2580712,41.1141671],[1.2580284,41.114185],[1.2579861,41.1141974],[1.2578789,41.1142282],[1.2578188,41.1142532],[1.2577722,41.114283],[1.2577405,41.1143126],[1.257702,41.1143766],[1.2576848,41.1144241],[1.2576583,41.1145244],[1.2576405,41.1146201],[1.2576154,41.1147893],[1.2575955,41.1149084],[1.2575868,41.1150165],[1.2575943,41.1151504],[1.2575962,41.1151683],[1.2576037,41.1152411],[1.2576196,41.1153799],[1.257628,41.1154158],[1.2576199,41.1154517],[1.257604,41.1154729],[1.2575962,41.1154834],[1.2575871,41.1154911],[1.2575545,41.1155539],[1.2575326,41.1156139],[1.2575099,41.1156761],[1.2574709,41.1157349],[1.257489,41.1158404],[1.2575311,41.1159448],[1.2575871,41.1160289],[1.2576538,41.1160964],[1.2577384,41.1161517],[1.25791,41.1162422],[1.2580264,41.1162844],[1.2581179,41.1163175],[1.2585709,41.1164815],[1.2587487,41.1165552],[1.2589732,41.1166482],[1.2590859,41.1166949],[1.2594202,41.1168449],[1.2595164,41.1169307],[1.2599351,41.1174393],[1.2603645,41.1179659],[1.2604667,41.1180945],[1.2605964,41.1182033],[1.2606582,41.1182735],[1.2607081,41.1182985],[1.2607461,41.1183314],[1.2608798,41.1184472],[1.2611716,41.1186347],[1.261414,41.118788],[1.2615162,41.1188527],[1.2615037,41.1188687],[1.2614998,41.1188803],[1.2615008,41.1188988],[1.2615101,41.1189159],[1.2615304,41.1189316],[1.2615528,41.1189391],[1.2615773,41.1189404],[1.2614955,41.1190471],[1.2613473,41.1192405],[1.2612368,41.1193942],[1.261091,41.1195968],[1.2610014,41.1197216],[1.2608514,41.1199194],[1.2609087,41.1200319],[1.2611056,41.1201639],[1.2612721,41.1202692],[1.2614624,41.1204038],[1.2615023,41.1204456],[1.2615208,41.1204995],[1.2615298,41.1205238],[1.261537,41.1205505],[1.2615435,41.1205944],[1.2615495,41.1206262],[1.2615639,41.1207157],[1.2615596,41.1207953],[1.2615487,41.1208179],[1.261475,41.1209701],[1.2613071,41.1212641],[1.2612565,41.1213123],[1.2611751,41.121345],[1.2610496,41.1213726],[1.2609215,41.1213731],[1.2608038,41.1213433],[1.2602676,41.120939],[1.2601269,41.1209267],[1.2600664,41.12093],[1.2595327,41.1210538],[1.2590695,41.1211577],[1.2589048,41.1212126],[1.2587821,41.1212636],[1.258493,41.121467],[1.2583446,41.1215602],[1.2582358,41.1216112],[1.2581283,41.1216476],[1.2579858,41.1216206],[1.2579161,41.1216009],[1.257663,41.1215294],[1.25762,41.1215173],[1.2574675,41.1214742],[1.2566961,41.1212418],[1.2562227,41.1210949],[1.2561885,41.121041],[1.2561377,41.1209611],[1.2559769,41.1208366],[1.2559446,41.1208158],[1.2557801,41.12071],[1.255002,41.12025],[1.2544251,41.1198841],[1.2539105,41.1195556],[1.2537812,41.1194919],[1.2537129,41.1194527],[1.2536705,41.1194261],[1.2536056,41.1193865],[1.2535249,41.1194456],[1.2530504,41.1197829],[1.2529655,41.1198432],[1.2527406,41.120003],[1.2526086,41.1200969],[1.2523319,41.1202956],[1.2521886,41.1203954],[1.2517641,41.1206942],[1.2516496,41.1207785],[1.2514951,41.1208842],[1.2512179,41.1210804],[1.2508601,41.1213277],[1.2506131,41.1214999],[1.2504831,41.1215906],[1.2499653,41.1219215],[1.2499346,41.1219411],[1.249769,41.1220387],[1.2496999,41.1220795],[1.2494309,41.1222304],[1.2494046,41.1222452],[1.248864,41.1225061],[1.2486683,41.122603],[1.2486068,41.1226316],[1.2484606,41.1226994],[1.2482746,41.1227839],[1.2479937,41.1229049],[1.2479446,41.1229259],[1.2477215,41.1230019],[1.2475138,41.123062],[1.2472795,41.1231132],[1.247051,41.1231469],[1.2469161,41.1231608],[1.246746,41.1231702],[1.2465461,41.1231744],[1.2460357,41.1231603],[1.2459108,41.1231561],[1.2458615,41.1231545],[1.2457234,41.123137],[1.2456872,41.1231142],[1.245627,41.1230916],[1.2455639,41.1230868],[1.2454652,41.1231104],[1.2454257,41.1231341],[1.2451958,41.1230759],[1.2448805,41.1230228],[1.2442802,41.1229051],[1.2441565,41.1228713],[1.2441004,41.122856],[1.24394,41.1228042],[1.2439213,41.1227716],[1.2438899,41.1227451],[1.2438485,41.1227274],[1.2438017,41.1227206],[1.2437545,41.1227254],[1.2437118,41.1227413],[1.2436899,41.1227559],[1.243602,41.1227405],[1.2434386,41.1226884],[1.2428725,41.1225078],[1.2426724,41.1223942],[1.2426002,41.1223533],[1.2425904,41.122346],[1.2424559,41.1222454],[1.2424176,41.1222168],[1.2418511,41.1218095],[1.2415738,41.1216317],[1.2413877,41.1214601],[1.2412655,41.1213474],[1.2412493,41.1212394],[1.24127,41.1211913],[1.2412706,41.1211266],[1.2412423,41.1210656],[1.2411885,41.1210152],[1.2411154,41.1209814],[1.2410527,41.1209694],[1.2409881,41.1209697],[1.2409257,41.1209825],[1.2408697,41.1210068],[1.2406603,41.1208496],[1.2405185,41.1207432],[1.2402936,41.1205009],[1.2400789,41.1202465],[1.2399089,41.119996],[1.2398499,41.1198996],[1.2398058,41.1198276],[1.2397453,41.1197289],[1.2396303,41.1194433],[1.2395631,41.1192433],[1.2395403,41.1191345],[1.2395425,41.1190909],[1.2395447,41.1190478],[1.2395625,41.1189711],[1.2395829,41.1189254],[1.2395995,41.1189306],[1.2396299,41.1189349],[1.2396753,41.1189323],[1.2397185,41.1189188],[1.2397538,41.1188958],[1.2397789,41.1188632],[1.2397857,41.1188446],[1.239787,41.1188118],[1.2397785,41.1187857],[1.2397632,41.1187634],[1.2397326,41.1187384],[1.2396822,41.1187189],[1.2396399,41.1187145],[1.2395889,41.1187219],[1.2395736,41.1186758],[1.2395718,41.1186346],[1.2395709,41.1186146],[1.2395747,41.1185665],[1.239598,41.1182699],[1.2396467,41.1178416],[1.2396597,41.117797],[1.2401052,41.1164952],[1.2401661,41.1163214],[1.2403501,41.1158482],[1.2403931,41.1157526],[1.2406218,41.1152438],[1.2406761,41.1151273],[1.2411215,41.1141148],[1.2411969,41.1139397],[1.2412454,41.1138174],[1.2412571,41.1137877],[1.2413111,41.1137142],[1.241346,41.1137024],[1.2413765,41.1136829],[1.2413938,41.1136644],[1.2414085,41.1136344],[1.2414112,41.1136158],[1.241408,41.1135912],[1.2414004,41.1135731],[1.241397,41.1135198],[1.2414105,41.1134691],[1.241429,41.1134125],[1.2414452,41.1133629],[1.2415335,41.1131578],[1.2415797,41.1130515],[1.2418115,41.1125175],[1.2418711,41.1123851],[1.2419256,41.1122336],[1.2419702,41.1121381],[1.2419739,41.1121303],[1.2420111,41.112044],[1.2420692,41.1119191],[1.242078,41.1118974],[1.2421836,41.1116374],[1.242277,41.1114245],[1.2423512,41.1113666],[1.2424845,41.1113228],[1.242657,41.1112859]]]}}]}