{"type":"FeatureCollection","name":"ZBE Valencia","features":[{"type":"Feature","properties":{"name":"València ZBE","calidad":"uploaded_official_polygon"},"geometry":{"type":"Polygon","coordinates":[[[-0.33498963253335184,39.468590647041644],[-0.3350744024978371,39.46813618835024],[-0.3355020721220024,39.46582795947563],[-0.33553554343906855,39.46569132281035],[-0.33557468891537146,39.46555559548097],[-0.3356194694170006,39.465420918922455],[-0.3356698365557819,39.465287433455956],[-0.33572573852994836,39.46515527752187],[-0.3357871165375152,39.46502459030037],[-0.3358539061094577,39.46489550723758],[-0.3359260393291815,39.464768162799096],[-0.3360034389922126,39.46464269123707],[-0.3360860257797126,39.46451922134946],[-0.3361737133389803,39.46439788357431],[-0.3365322677292326,39.46393567211885],[-0.33690809363017155,39.4634817802573],[-0.33730086923279673,39.463036595931996],[-0.33771025909836005,39.46260049956326],[-0.33782690636738133,39.46248408410511],[-0.33794850180608105,39.462370750252035],[-0.3380749091842187,39.462260626396045],[-0.33820598787009626,39.46215383452205],[-0.33834159156645266,39.46205049288196],[-0.3384815694030386,39.46195071782122],[-0.3386257649469516,39.46185461925215],[-0.3387740183534427,39.46176230520747],[-0.3425774118270045,39.459473771807694],[-0.35225117349827645,39.45345988295615],[-0.3723523300219551,39.44501374118335],[-0.38461191744919493,39.446273511578774],[-0.3920717995736962,39.44796585566621],[-0.3993978367024286,39.45370607366187],[-0.40204098224342844,39.45818299223475],[-0.4052656392948378,39.463564463945445],[-0.40595788064064176,39.467726246574145],[-0.4049388743242794,39.47061558568661],[-0.40682227638179974,39.48046097168395],[-0.406830920327162,39.481522710597055],[-0.4048629237001082,39.487864444765925],[-0.4077862331424662,39.49181816224424],[-0.4078601236635766,39.49193213883987],[-0.39974185066325196,39.49547534586288],[-0.39855015864663307,39.49379705394124],[-0.3983902943096558,39.49364172414248],[-0.39737166740937535,39.49429012096828],[-0.39625746440265563,39.49500477696814],[-0.39623589863148967,39.49509541765725],[-0.3966516168664802,39.49540243014637],[-0.39420589488280194,39.49691900207302],[-0.39586350280079613,39.498477741564514],[-0.3953448327290874,39.49877435762538],[-0.3938172385273044,39.50076680416786],[-0.3914847273946566,39.498359766208765],[-0.389020960642528,39.49984463688113],[-0.38678249296576656,39.49776798395873],[-0.3865980876509049,39.49716117075688],[-0.38653933136001134,39.49714768101874],[-0.38648001296508594,39.49713575604453],[-0.3864202039552763,39.49712541185542],[-0.386359971374671,39.497116658967556],[-0.3862993892381199,39.497109508053946],[-0.38623852585246055,39.49710396695678],[-0.3861774530098731,39.49710004359671],[-0.3861162426711212,39.497097741393986],[-0.38605496679690166,39.49709706376903],[-0.3859936974490869,39.497098011442034],[-0.3859325044671463,39.49710058238066],[-0.38587146233775654,39.49710477465737],[-0.38581063987356173,39.49711058261349],[-0.3857501105682431,39.49711799979507],[-0.385689944531328,39.49712701696943],[-0.38563021071064296,39.4971376248779],[-0.38557098170829235,39.49714980983987],[-0.385512324317446,39.497163558044065],[-0.38545431007991837,39.49717885308362],[-0.38539700472866906,39.49719567842106],[-0.3853404753611243,39.49721401214446],[-0.3852847901692458,39.49723383416843],[-0.3852300116374401,39.497255121576615],[-0.3851762070325687,39.49727784795688],[-0.38512343661718557,39.4973019876404],[-0.38507176420700867,39.49732751323666],[-0.3850212491395844,39.49735439275011],[-0.384971950651504,39.497382596885565],[-0.38492392702035827,39.4974120909211],[-0.3848772341666653,39.497442840982664],[-0.3848319269507459,39.49747481046972],[-0.38478805903766566,39.49750796365586],[-0.3847456808098918,39.497542259335425],[-0.3847048425489829,39.4975776590032],[-0.38466559118640015,39.497614120475056],[-0.3846279736539143,39.49765160156693],[-0.3845920334657311,39.497690058215966],[-0.38455781300828207,39.49772944543313],[-0.38452535241220764,39.49776971637676],[-0.3781040020390405,39.49908737699714],[-0.37777677795228193,39.49913560535072],[-0.3774479000964106,39.49917653078117],[-0.3771176408055324,39.499210118884015],[-0.3767862721447306,39.49923634245866],[-0.37645406713909924,39.499255179734604],[-0.37615807424665865,39.499264665638755],[-0.37586183542029933,39.49926619229801],[-0.37556570672483947,39.49925975604297],[-0.3752700437842824,39.49924536490909],[-0.37497520417256286,39.49922303688927],[-0.3746815416376686,39.49919279890223],[-0.3743894096204385,39.49915468597113],[-0.37409916108456837,39.499108745724094],[-0.37381114291016676,39.49905503286219],[-0.37352570512009187,39.49899361116944],[-0.3732431879976165,39.498924555924425],[-0.3729639350354795,39.498847949688205],[-0.35834577164230713,39.494614157301605],[-0.3577306844900691,39.49434701043345],[-0.35311956774352277,39.48809192314557],[-0.3516727424257342,39.48218917443029],[-0.35106360561925604,39.481335247639834],[-0.34541684262046246,39.47969183057029],[-0.3335650913515293,39.47624274183965],[-0.3343919954645814,39.47179485059466],[-0.3344057604092214,39.47169762244288],[-0.33441700979882755,39.471628554651694],[-0.33443115626917963,39.471559808259116],[-0.33444818193058695,39.471491455824484],[-0.3344680712850475,39.471423568159956],[-0.3344908028906787,39.4713562195447],[-0.3345163508324144,39.47128947965068],[-0.3345446902538007,39.471223420876626],[-0.33457579066395465,39.471158110987446],[-0.3346096167552521,39.47109362214185],[-0.3346461357837765,39.47103002025105],[-0.33468530677367403,39.47096737373989],[-0.33469976282375336,39.47094609603968],[-0.3347151464753455,39.4709252125743],[-0.3347314427953511,39.470904749126156],[-0.3347486299858544,39.470884728617655],[-0.3347666908599921,39.47086517497785],[-0.3347856024586875,39.47084611110245],[-0.3348053430186658,39.47082755901377],[-0.3348258896497453,39.470809539807384],[-0.33484721826616815,39.47079207545233],[-0.3348693036896293,39.470775186090805],[-0.3348921219376442,39.47075889099161],[-0.33491564322116185,39.47074320929037],[-0.3349398435578267,39.47072816025589],[-0.3349646921349056,39.47071375939684],[-0.33499016148625643,39.47070002590213],[-0.33501621967231626,39.4706869743538],[-0.33504283936455886,39.470674620340425],[-0.33506998749662237,39.47066297751734],[-0.33509763325616,39.47065206139332],[-0.3351257437143932,39.47064188202338],[-0.33515428577082296,39.470632453963034],[-0.33518322769248443,39.47062378639384],[-0.335212534193776,39.47061589021779],[-0.3352421712192161,39.47060877456329],[-0.3352721047477226,39.4706024476587],[-0.3353022996312692,39.47059691680573],[-0.3353207794741619,39.47059402984238],[-0.33533936964185745,39.470591602148914],[-0.3353580501860745,39.4705896386731],[-0.3353768024572615,39.47058814078904],[-0.33539560667890744,39.47058710894408],[-0.33541444416714444,39.47058654541242],[-0.33542725438084975,39.470586148172025],[-0.3354400394294042,39.47058540531852],[-0.33545278301971376,39.470584317379156],[-0.33546546998565896,39.47058288580792],[-0.3354780839998015,39.470581112032264],[-0.33549061102298733,39.4705789984329],[-0.33550303585475477,39.47057654736395],[-0.3355153420989696,39.470573762052986],[-0.33552751564778427,39.47057064668097],[-0.33553954246206846,39.47056720362867],[-0.3355514061113713,39.470563437023756],[-0.3355630935804923,39.47055935287399],[-0.33557459076162205,39.470554955360335],[-0.33558588231693975,39.470550250437284],[-0.33559695529998274,39.470545242312454],[-0.335607796661266,39.4705399378937],[-0.3356183921899557,39.470534344062244],[-0.33562872999790694,39.47052846775255],[-0.33563879823133186,39.47052231499908],[-0.3356485814494318,39.47051589445659],[-0.3356580712480577,39.47050921313951],[-0.3356672545434524,39.470502278855726],[-0.33567612050578044,39.47049510126668],[-0.33568465837395806,39.47048768823355],[-0.3356928561568831,39.47048004939113],[-0.3357007065431017,39.470472193580605],[-0.335708198702853,39.47046413046337],[-0.3357153230020896,39.470455868827344],[-0.3357220719919794,39.47044742111405],[-0.3357284360728538,39.47043879521134],[-0.33573440899160223,39.47043000268727],[-0.3357399822068266,39.47042105415656],[-0.3357451494997965,39.47041196028719],[-0.3357499046174478,39.47040273264724],[-0.33575424250238983,39.47039338193128],[-0.3357581569015759,39.47038391970733],[-0.3357616427232721,39.470374357570094],[-0.33576469603711834,39.47036470714089],[-0.33576731407402854,39.47035498006759],[-0.33576949174233167,39.47034518794484],[-0.33577122856127156,39.47033534337395],[-0.3357725217961549,39.47032545710265],[-0.33577336860923684,39.470315542579094],[-0.33577376858848973,39.47030561060426],[-0.33577372241450687,39.47029567380603],[-0.33577322960652345,39.47028574478563],[-0.3357722897181689,39.47027583524415],[-0.3357709046256989,39.47026595693598],[-0.33576907620535174,39.470256121615506],[-0.3357668062990291,39.470246341937134],[-0.3357640979442988,39.470236629681864],[-0.3357609541787121,39.47022699663066],[-0.3357573792011418,39.470217454591115],[-0.3357533772447958,39.47020801447076],[-0.33574895250854336,39.47019868807713],[-0.3357441115138531,39.47018948727113],[-0.3357388584939207,39.47018042296017],[-0.3357332023271987,39.47017150615829],[-0.3357271472468593,39.47016274777296],[-0.3357207021656641,39.470154157918074],[-0.33571387480071935,39.47014574758097],[-0.33570667406478116,39.47013752687553],[-0.33569910654794116,39.47012950586244],[-0.3356911835199253,39.47012169380873],[-0.3356829138934376,39.47011410082825],[-0.3356743077768373,39.470106736161455],[-0.335665375312837,39.47009960814871],[-0.3356561277710825,39.470092726056976],[-0.33564657529423714,39.470086098226666],[-0.3356367315432695,39.47007973217787],[-0.33562660782213893,39.47007363627756],[-0.33561621546913073,39.470067817992636],[-0.33560556701820704,39.4700622839165],[-0.33559467732593196,39.47005704069582],[-0.3355835577649037,39.4700520948974],[-0.33557222203035114,39.47004745314132],[-0.3355448411522611,39.470037155368395],[-0.33551702585709753,39.47002758094002],[-0.33548880944443954,39.470018740529035],[-0.33546022405250214,39.470010644781624],[-0.33543130076117467,39.47000330161714],[-0.3354020752268501,39.46999672086166],[-0.3353953623776637,39.46999520842168],[-0.33538872143373916,39.469993517455265],[-0.3353821592599586,39.46999165082246],[-0.3353756839512063,39.46998960960976],[-0.33536930230361456,39.469987398477386],[-0.3353630224120826,39.46998501851187],[-0.3353568523371066,39.46998247169974],[-0.33535079887483954,39.46997976270129],[-0.3353448688901097,39.46997689437654],[-0.33533906924776563,39.469973869585516],[-0.3353334067782736,39.46997069208836],[-0.3353278894734355,39.46996736567192],[-0.3353225230023853,39.4699638940696],[-0.3353173129999166,39.469960281915064],[-0.3353010890824685,39.46994822646212],[-0.33528541269203815,39.46993574303458],[-0.3352703041825175,39.46992284651339],[-0.3352557815851126,39.469909551726225],[-0.3352418605396257,39.46989587524765],[-0.3352285602041498,39.46988183283202],[-0.3352158938614123,39.469867441900824],[-0.33520387943936897,39.46985271998188],[-0.3351925290593748,39.469837684470036],[-0.3351818582923059,39.46982235373998],[-0.3351718780981091,39.469806745159794],[-0.33516260285193594,39.46979087797773],[-0.3351259653685795,39.469721997510334],[-0.335092390176645,39.46965218638516],[-0.33506191601696983,39.469581525670925],[-0.33503457923856883,39.46951009818307],[-0.3350104103490969,39.469437987503746],[-0.3349894386601517,39.46936527808827],[-0.3349716887690119,39.46929205608537],[-0.3349571818918435,39.469218404863426],[-0.3349459332319043,39.46914441305778],[-0.334937956934011,39.46907016657676],[-0.3349332636589909,39.468995751248364],[-0.3349318558353793,39.46892125541427],[-0.33498963253335184,39.468590647041644]]]}}]}