{"type":"FeatureCollection","name":"ZBE Valladolid","features":[{"type":"Feature","properties":{"name":"Valladolid","calidad":"approx_convex_hull_from_sparse_points"},"geometry":{"type":"Polygon","coordinates":[[[-4.72069,41.647095],[-4.7220287,41.64724],[-4.7300134,41.64817],[-4.732749,41.649628],[-4.7318673,41.655193],[-4.73165,41.656425],[-4.731443,41.656647],[-4.7251377,41.658825],[-4.725022,41.65882],[-4.722494,41.658215],[-4.7196326,41.657223],[-4.7178154,41.654068],[-4.71829,41.65228],[-4.72069,41.647095]]]}}]}