{"type":"FeatureCollection","name":"ZBE Vitoria-Gasteiz","features":[{"type":"Feature","properties":{"name":"Vitoria-Gasteiz","calidad":"approx_from_sparse_boundary_points"},"geometry":{"type":"Polygon","coordinates":[[[-2.677295892122836,42.84490854570214],[-2.6764994,42.845707],[-2.676142,42.84709],[-2.6762118,42.847466],[-2.6755311,42.849266],[-2.6737828,42.851536],[-2.6732967,42.852013],[-2.6731632,42.852352],[-2.6730998,42.85263],[-2.6731813,42.85308],[-2.670227,42.852093],[-2.6691453,42.850346],[-2.6686778,42.849224],[-2.668305,42.84823],[-2.667851,42.846935],[-2.6681008,42.846146],[-2.6682484,42.845608],[-2.6686096,42.8442],[-2.6700573,42.84342],[-2.6724162,42.84322],[-2.6726305,42.843246],[-2.672696378167343,42.842446482530015],[-2.6743975,42.843502],[-2.6756046,42.84361],[-2.677295892122836,42.84490854570214]]]}}]}