{"type":"FeatureCollection","name":"ZBE zamora","features":[{"type":"Feature","properties":{"name":"ZBE Zamora · Casco Histórico","fuente":"Trazado a partir de imagen · calidad: media - mapa señalización paneles"},"geometry":{"type":"Polygon","coordinates":[[[-5.753,41.5085],[-5.7515,41.5095],[-5.7495,41.51],[-5.747,41.5102],[-5.7445,41.51],[-5.742,41.5095],[-5.74,41.5085],[-5.7385,41.507],[-5.7378,41.505],[-5.7378,41.5028],[-5.739,41.501],[-5.7415,41.5],[-5.7445,41.4998],[-5.7475,41.5002],[-5.75,41.5012],[-5.7525,41.5028],[-5.7535,41.505],[-5.7535,41.507],[-5.753,41.5085]]]}}]}