{"type":"FeatureCollection","name":"ZBE Zaragoza","features":[{"type":"Feature","properties":{"name":"ZBE Zaragoza – Casco Histórico","calidad":"uploaded_official_like_polygon"},"geometry":{"type":"Polygon","coordinates":[[[-0.889253926194015,41.65861323602808],[-0.889324144399007,41.657983697105564],[-0.888624563023346,41.657845741766565],[-0.888853422358135,41.656860615474784],[-0.88879100617592,41.65684895708526],[-0.888978254722565,41.65644091212221],[-0.88934234911882,41.655418845296126],[-0.88593026449106,41.65461827972493],[-0.884005765539428,41.65398870175229],[-0.881082607672354,41.652504116984],[-0.880479251244274,41.652138795067465],[-0.877087972010587,41.65088347098858],[-0.873426222653967,41.65508074357454],[-0.879043679053327,41.65739689911184],[-0.881561131736003,41.65782436837775],[-0.884837981302296,41.65802644377035],[-0.887241004317578,41.65839950436782],[-0.889253926194015,41.65861323602808]]]}}]}